{"type": "FeatureCollection", "features": [{"type": "Feature", "geometry": {"type": "Point", "coordinates": [-0.106169, 51.503518]}, "properties": {"access": "customers", "amenity": "charging_station", "capacity": 1, "name": "Southwark/The Cut", "opening_hours": "24/7", "operator": "Source London"}}, {"type": "Feature", "geometry": {"type": "Point", "coordinates": [-0.075508, 51.459683]}, "properties": {"access": "customers", "amenity": "charging_station", "capacity": 1, "name": "Southwark/East Dulwich Grove", "opening_hours": "24/7", "operator": "Source London"}}, {"type": "Feature", "geometry": {"type": "Point", "coordinates": [-0.391922, 51.440908]}, "properties": {"access": "customers", "amenity": "charging_station", "capacity": 3, "name": "Hounslow/Hanworth Air Park Leisure Centre and Library", "opening_hours": "24/7", "operator": "Source London", "socket:type2": 3, "socket:type1": 3}}, {"type": "Feature", "geometry": {"type": "Point", "coordinates": [-0.330309, 51.465756]}, "properties": {"access": "customers", "amenity": "charging_station", "capacity": 2, "name": "Hounslow/Isleworth Leisure Centre & Library", "opening_hours": "24/7", "operator": "Source London", "socket:type2": 2, "socket:type1": 2}}, {"type": "Feature", "geometry": {"type": "Point", "coordinates": [-0.374903, 51.485824]}, "properties": {"access": "customers", "amenity": "charging_station", "capacity": 4, "name": "Hounslow/Heston Library Car Park", "opening_hours": "24/7", "operator": "Source London", "socket:type2": 4, "socket:type1": 4}}, {"type": "Feature", "geometry": {"type": "Point", "coordinates": [-0.2847, 51.491095]}, "properties": {"access": "customers", "amenity": "charging_station", "capacity": 2, "name": "Hounslow/Brentford Fountain Leisure Centre", "opening_hours": "24/7", "operator": "Source London", "socket:type2": 2, "socket:type1": 2}}, {"type": "Feature", "geometry": {"type": "Point", "coordinates": [-0.247966, 51.495351]}, "properties": {"access": "customers", "amenity": "charging_station", "capacity": 6, "name": "Hounslow/Welstead Way Car Park", "opening_hours": "24/7", "operator": "Source London", "socket:type2": 5, "socket:type1": 5}}, {"type": "Feature", "geometry": {"type": "Point", "coordinates": [-0.300737, 51.485399]}, "properties": {"access": "customers", "amenity": "charging_station", "capacity": 2, "name": "Hounslow/Brentford High Street Car Park", "opening_hours": "24/7", "operator": "Source London", "socket:type2": 2, "socket:type1": 2}}, {"type": "Feature", "geometry": {"type": "Point", "coordinates": [-0.044186, 51.53649]}, "properties": {"access": "customers", "amenity": "charging_station", "capacity": 2, "name": "Hackney/Gore Road", "opening_hours": "24/7", "operator": "Source London", "socket:type2": 1, "socket:type1": 1}}, {"type": "Feature", "geometry": {"type": "Point", "coordinates": [-0.079172, 51.524494]}, "properties": {"access": "customers", "amenity": "charging_station", "capacity": 2, "name": "Hackney/King John Court", "opening_hours": "24/7", "operator": "Source London", "socket:type2": 1, "socket:type1": 1}}, {"type": "Feature", "geometry": {"type": "Point", "coordinates": [-0.1018, 51.565981]}, "properties": {"access": "customers", "amenity": "charging_station", "capacity": 2, "name": "Hackney/Queens Drive", "opening_hours": "24/7", "operator": "Source London", "socket:type2": 1, "socket:type1": 1}}, {"type": "Feature", "geometry": {"type": "Point", "coordinates": [-0.062467, 51.545609]}, "properties": {"access": "customers", "amenity": "charging_station", "capacity": 2, "name": "Hackney/Wilton Way", "opening_hours": "24/7", "operator": "Source London"}}, {"type": "Feature", "geometry": {"type": "Point", "coordinates": [-0.063732, 51.569819]}, "properties": {"access": "customers", "amenity": "charging_station", "capacity": 2, "name": "Hackney/Oldhill Street", "opening_hours": "24/7", "operator": "Source London", "socket:type2": 2, "socket:type1": 2}}, {"type": "Feature", "geometry": {"type": "Point", "coordinates": [-0.038815, 51.408595]}, "properties": {"access": "customers", "amenity": "charging_station", "capacity": 2, "name": "Bromley/The Spa Car Park", "opening_hours": "24/7", "operator": "Source London", "socket:type2": 2, "socket:type1": 2}}, {"type": "Feature", "geometry": {"type": "Point", "coordinates": [-0.055103, 51.41919]}, "properties": {"access": "customers", "amenity": "charging_station", "capacity": 2, "name": "Bromley/Penge East Station", "opening_hours": "24/7", "operator": "Source London", "socket:type2": 2, "socket:type1": 2}}, {"type": "Feature", "geometry": {"type": "Point", "coordinates": [0.020377, 51.403879]}, "properties": {"access": "customers", "amenity": "charging_station", "capacity": 2, "name": "Bromley/Civic Centre Car Park", "opening_hours": "24/7", "operator": "Source London", "socket:type2": 2, "socket:type1": 2}}, {"type": "Feature", "geometry": {"type": "Point", "coordinates": [-0.023626, 51.409415]}, "properties": {"access": "customers", "amenity": "charging_station", "capacity": 2, "name": "Bromley/St Georges Road car park", "opening_hours": "24/7", "operator": "Source London", "socket:type2": 2, "socket:type1": 2}}, {"type": "Feature", "geometry": {"type": "Point", "coordinates": [-0.384958, 51.472726]}, "properties": {"access": "customers", "amenity": "charging_station", "capacity": 5, "name": "Hounslow/NCP Hounslow West Station", "opening_hours": "24/7", "operator": "Source London", "socket:type2": 5, "socket:type1": 5}}, {"type": "Feature", "geometry": {"type": "Point", "coordinates": [-0.192842, 51.649707]}, "properties": {"access": "customers", "amenity": "charging_station", "capacity": 4, "name": "Barnet/NCP High Barnet Station", "opening_hours": "24/7", "operator": "Source London", "socket:type2": 4, "socket:type1": 4}}, {"type": "Feature", "geometry": {"type": "Point", "coordinates": [0.004088, 51.498556]}, "properties": {"access": "customers", "amenity": "charging_station", "capacity": 4, "name": "Greenwich/NCP North Greenwich Station", "opening_hours": "24/7", "operator": "Source London", "socket:type2": 4, "socket:type1": 4}}, {"type": "Feature", "geometry": {"type": "Point", "coordinates": [-0.13157, 51.522594]}, "properties": {"access": "customers", "amenity": "charging_station", "capacity": 1, "name": "Camden/Malet Street", "opening_hours": "24/7", "operator": "Source London"}}, {"type": "Feature", "geometry": {"type": "Point", "coordinates": [-0.117359, 51.524642]}, "properties": {"access": "customers", "amenity": "charging_station", "capacity": 1, "name": "Camden/Doughty Street", "opening_hours": "24/7", "operator": "Source London"}}, {"type": "Feature", "geometry": {"type": "Point", "coordinates": [-0.162209, 51.553553]}, "properties": {"access": "customers", "amenity": "charging_station", "capacity": 1, "name": "Camden/Fleet Road", "opening_hours": "24/7", "operator": "Source London"}}, {"type": "Feature", "geometry": {"type": "Point", "coordinates": [-0.157505, 51.540027]}, "properties": {"access": "customers", "amenity": "charging_station", "capacity": 2, "name": "Camden/Regents Park Road", "opening_hours": "24/7", "operator": "Source London", "socket:type2": 2, "socket:type1": 2}}, {"type": "Feature", "geometry": {"type": "Point", "coordinates": [-0.163056, 51.549358]}, "properties": {"access": "customers", "amenity": "charging_station", "capacity": 2, "name": "Camden/Haverstock Hill Road", "opening_hours": "24/7", "operator": "Source London", "socket:type2": 2, "socket:type1": 2}}, {"type": "Feature", "geometry": {"type": "Point", "coordinates": [-0.166722, 51.556106]}, "properties": {"access": "customers", "amenity": "charging_station", "capacity": 2, "name": "Camden/South End Road", "opening_hours": "24/7", "operator": "Source London", "socket:type2": 2, "socket:type1": 2}}, {"type": "Feature", "geometry": {"type": "Point", "coordinates": [-0.115537, 51.51745]}, "properties": {"access": "customers", "amenity": "charging_station", "capacity": 1, "name": "Camden/Lincolns Inn Field", "opening_hours": "24/7", "operator": "Source London"}}, {"type": "Feature", "geometry": {"type": "Point", "coordinates": [-0.123349, 51.523398]}, "properties": {"access": "customers", "amenity": "charging_station", "capacity": 1, "name": "Camden/Bernard Street", "opening_hours": "24/7", "operator": "Source London"}}, {"type": "Feature", "geometry": {"type": "Point", "coordinates": [-0.142097, 51.523543]}, "properties": {"access": "customers", "amenity": "charging_station", "capacity": 1, "name": "Camden/Warren Street", "opening_hours": "24/7", "operator": "Source London"}}, {"type": "Feature", "geometry": {"type": "Point", "coordinates": [-0.131315, 51.520009]}, "properties": {"access": "customers", "amenity": "charging_station", "capacity": 1, "name": "Camden/Store Street", "opening_hours": "24/7", "operator": "Source London"}}, {"type": "Feature", "geometry": {"type": "Point", "coordinates": [-0.118403, 51.515045]}, "properties": {"access": "customers", "amenity": "charging_station", "capacity": 1, "name": "Camden/Sardinia Street", "opening_hours": "24/7", "operator": "Source London"}}, {"type": "Feature", "geometry": {"type": "Point", "coordinates": [-0.118663, 51.528331]}, "properties": {"access": "customers", "amenity": "charging_station", "capacity": 1, "name": "Camden/Acton Street", "opening_hours": "24/7", "operator": "Source London"}}, {"type": "Feature", "geometry": {"type": "Point", "coordinates": [-0.146556, 51.570285]}, "properties": {"access": "customers", "amenity": "charging_station", "capacity": 1, "name": "Camden/Bisham Gardens", "opening_hours": "24/7", "operator": "Source London"}}, {"type": "Feature", "geometry": {"type": "Point", "coordinates": [-0.114727, 51.521344]}, "properties": {"access": "customers", "amenity": "charging_station", "capacity": 2, "name": "Camden/John Street", "opening_hours": "24/7", "operator": "Source London", "socket:type2": 1, "socket:type1": 1}}, {"type": "Feature", "geometry": {"type": "Point", "coordinates": [-0.118753, 51.519493]}, "properties": {"access": "customers", "amenity": "charging_station", "capacity": 1, "name": "Camden/Red Lion Square", "opening_hours": "24/7", "operator": "Source London"}}, {"type": "Feature", "geometry": {"type": "Point", "coordinates": [-0.193438, 51.452657]}, "properties": {"access": "customers", "amenity": "charging_station", "capacity": 2, "name": "Wandsworth/Wandle Recreation Centre", "opening_hours": "24/7", "operator": "Source London", "socket:type2": 2, "socket:type1": 2}}, {"type": "Feature", "geometry": {"type": "Point", "coordinates": [-0.228783, 51.463538]}, "properties": {"access": "customers", "amenity": "charging_station", "capacity": 3, "name": "Wandsworth/Putney Leisure Centre", "opening_hours": "24/7", "operator": "Source London", "socket:type2": 3, "socket:type1": 3}}, {"type": "Feature", "geometry": {"type": "Point", "coordinates": [-0.151261, 51.358314]}, "properties": {"access": "customers", "amenity": "charging_station", "capacity": 2, "name": "Sutton/Wallington Library Car Park", "opening_hours": "24/7", "operator": "Source London", "socket:type2": 2, "socket:type1": 2}}, {"type": "Feature", "geometry": {"type": "Point", "coordinates": [-0.1967, 51.362125]}, "properties": {"access": "customers", "amenity": "charging_station", "capacity": 3, "name": "Sutton/Gibson Road Car Park", "opening_hours": "24/7", "operator": "Source London", "socket:type2": 3, "socket:type1": 3}}, {"type": "Feature", "geometry": {"type": "Point", "coordinates": [-0.151463, 51.516884]}, "properties": {"access": "customers", "amenity": "charging_station", "capacity": 2, "name": "Westminster/Hinde Street", "opening_hours": "24/7", "operator": "Source London", "socket:type2": 2, "socket:type1": 2}}, {"type": "Feature", "geometry": {"type": "Point", "coordinates": [-0.013424, 51.482496]}, "properties": {"access": "customers", "amenity": "charging_station", "capacity": 3, "name": "Greenwich/Horseferry Place", "opening_hours": "24/7", "operator": "Source London", "socket:type2": 3, "socket:type1": 3}}, {"type": "Feature", "geometry": {"type": "Point", "coordinates": [-0.011526, 51.475144]}, "properties": {"access": "customers", "amenity": "charging_station", "capacity": 2, "name": "Greenwich/Blissett Street", "opening_hours": "24/7", "operator": "Source London", "socket:type2": 2, "socket:type1": 2}}, {"type": "Feature", "geometry": {"type": "Point", "coordinates": [-0.013376, 51.47995]}, "properties": {"access": "customers", "amenity": "charging_station", "capacity": 2, "name": "Greenwich/Roan Street", "opening_hours": "24/7", "operator": "Source London", "socket:type2": 2, "socket:type1": 2}}, {"type": "Feature", "geometry": {"type": "Point", "coordinates": [0.013578, 51.495839]}, "properties": {"access": "customers", "amenity": "charging_station", "capacity": 2, "name": "Greenwich/East Parkside", "opening_hours": "24/7", "operator": "Source London", "socket:type2": 2, "socket:type1": 2}}, {"type": "Feature", "geometry": {"type": "Point", "coordinates": [-0.191415, 51.363923]}, "properties": {"access": "customers", "amenity": "charging_station", "capacity": 3, "name": "Sutton/Times Square Car Park", "opening_hours": "24/7", "operator": "Source London", "socket:type2": 3, "socket:type1": 3}}, {"type": "Feature", "geometry": {"type": "Point", "coordinates": [0.05952, 51.450087]}, "properties": {"access": "customers", "amenity": "charging_station", "capacity": 2, "name": "Greenwich/Messeter Place", "opening_hours": "24/7", "operator": "Source London", "socket:type2": 2, "socket:type1": 2}}, {"type": "Feature", "geometry": {"type": "Point", "coordinates": [-0.055301, 51.440645]}, "properties": {"access": "customers", "amenity": "charging_station", "capacity": 4, "name": "Lewisham/Pearcefield Avenue Car Park", "opening_hours": "24/7", "operator": "Source London", "socket:type2": 4, "socket:type1": 4}}, {"type": "Feature", "geometry": {"type": "Point", "coordinates": [-0.011428, 51.458857]}, "properties": {"access": "customers", "amenity": "charging_station", "capacity": 5, "name": "Lewisham/Slaithwaite Road Car Park", "opening_hours": "24/7", "operator": "Source London", "socket:type2": 5, "socket:type1": 5}}, {"type": "Feature", "geometry": {"type": "Point", "coordinates": [-0.022922, 51.477342]}, "properties": {"access": "customers", "amenity": "charging_station", "capacity": 4, "name": "Lewisham/Frankham Street car park", "opening_hours": "24/7", "operator": "Source London", "socket:type2": 4, "socket:type1": 4}}, {"type": "Feature", "geometry": {"type": "Point", "coordinates": [0.009719, 51.466401]}, "properties": {"access": "customers", "amenity": "charging_station", "capacity": 1, "name": "Lewisham/Blackheath Grove Car Park", "opening_hours": "24/7", "operator": "Source London"}}, {"type": "Feature", "geometry": {"type": "Point", "coordinates": [-0.034237, 51.425145]}, "properties": {"access": "customers", "amenity": "charging_station", "capacity": 2, "name": "Lewisham/Westerley Crescent", "opening_hours": "24/7", "operator": "Source London", "socket:type2": 2, "socket:type1": 2}}, {"type": "Feature", "geometry": {"type": "Point", "coordinates": [-0.008739, 51.460762]}, "properties": {"access": "customers", "amenity": "charging_station", "capacity": 5, "name": "Lewisham/Clarendon Rise/Albion Way Car Park", "opening_hours": "24/7", "operator": "Source London", "socket:type2": 5, "socket:type1": 5}}, {"type": "Feature", "geometry": {"type": "Point", "coordinates": [-0.020499, 51.447149]}, "properties": {"access": "customers", "amenity": "charging_station", "capacity": 5, "name": "Lewisham/Holbeach Road Car Park", "opening_hours": "24/7", "operator": "Source London", "socket:type2": 5, "socket:type1": 5}}, {"type": "Feature", "geometry": {"type": "Point", "coordinates": [-0.150181, 51.560963]}, "properties": {"access": "customers", "amenity": "charging_station", "capacity": 1, "name": "Camden/St Albans Road", "opening_hours": "24/7", "operator": "Source London"}}, {"type": "Feature", "geometry": {"type": "Point", "coordinates": [-0.181085, 51.542121]}, "properties": {"access": "customers", "amenity": "charging_station", "capacity": 1, "name": "Camden/Fairhazel Gardens", "opening_hours": "24/7", "operator": "Source London"}}, {"type": "Feature", "geometry": {"type": "Point", "coordinates": [-0.202939, 51.551118]}, "properties": {"access": "customers", "amenity": "charging_station", "capacity": 1, "name": "Camden/Mill Lane", "opening_hours": "24/7", "operator": "Source London"}}, {"type": "Feature", "geometry": {"type": "Point", "coordinates": [-0.069681, 51.541123]}, "properties": {"access": "customers", "amenity": "charging_station", "capacity": 2, "name": "Hackney/Lavender Grove", "opening_hours": "24/7", "operator": "Source London", "socket:type2": 2, "socket:type1": 2}}, {"type": "Feature", "geometry": {"type": "Point", "coordinates": [-0.141029, 51.538454]}, "properties": {"access": "customers", "amenity": "charging_station", "capacity": 1, "name": "Camden/Greenland Street", "opening_hours": "24/7", "operator": "Source London"}}, {"type": "Feature", "geometry": {"type": "Point", "coordinates": [-0.200521, 51.545146]}, "properties": {"access": "customers", "amenity": "charging_station", "capacity": 1, "name": "Camden/Netherwood Street", "opening_hours": "24/7", "operator": "Source London"}}, {"type": "Feature", "geometry": {"type": "Point", "coordinates": [-0.191822, 51.540848]}, "properties": {"access": "customers", "amenity": "charging_station", "capacity": 2, "name": "Camden/West End Lane", "opening_hours": "24/7", "operator": "Source London", "socket:type2": 2, "socket:type1": 2}}, {"type": "Feature", "geometry": {"type": "Point", "coordinates": [-0.178892, 51.555531]}, "properties": {"access": "customers", "amenity": "charging_station", "capacity": 1, "name": "Camden/Church Row", "opening_hours": "24/7", "operator": "Source London"}}, {"type": "Feature", "geometry": {"type": "Point", "coordinates": [-0.122503, 51.529598]}, "properties": {"access": "customers", "amenity": "charging_station", "capacity": 1, "name": "Camden/Crestfield Street", "opening_hours": "24/7", "operator": "Source London"}}, {"type": "Feature", "geometry": {"type": "Point", "coordinates": [-0.138957, 51.557071]}, "properties": {"access": "customers", "amenity": "charging_station", "capacity": 1, "name": "Camden/Burghley Road", "opening_hours": "24/7", "operator": "Source London"}}, {"type": "Feature", "geometry": {"type": "Point", "coordinates": [-0.217793, 51.459603]}, "properties": {"access": "customers", "amenity": "charging_station", "capacity": 3, "name": "Wandsworth/St Johns Avenue", "opening_hours": "24/7", "operator": "Source London", "socket:type2": 3, "socket:type1": 3}}, {"type": "Feature", "geometry": {"type": "Point", "coordinates": [-0.173207, 51.428342]}, "properties": {"access": "customers", "amenity": "charging_station", "capacity": 2, "name": "Wandsworth/Coverton Road", "opening_hours": "24/7", "operator": "Source London", "socket:type2": 2, "socket:type1": 2}}, {"type": "Feature", "geometry": {"type": "Point", "coordinates": [-0.171706, 51.465234]}, "properties": {"access": "customers", "amenity": "charging_station", "capacity": 5, "name": "Wandsworth/Grant Road", "opening_hours": "24/7", "operator": "Source London", "socket:type2": 5, "socket:type1": 5}}, {"type": "Feature", "geometry": {"type": "Point", "coordinates": [-0.073018, 51.562491]}, "properties": {"access": "customers", "amenity": "charging_station", "capacity": 1, "name": "Hackney/Garnham Close", "opening_hours": "24/7", "operator": "Source London"}}, {"type": "Feature", "geometry": {"type": "Point", "coordinates": [-0.083447, 51.557383]}, "properties": {"access": "customers", "amenity": "charging_station", "capacity": 1, "name": "Hackney/Clissold Road", "opening_hours": "24/7", "operator": "Source London"}}, {"type": "Feature", "geometry": {"type": "Point", "coordinates": [-0.044229, 51.468059]}, "properties": {"access": "customers", "amenity": "charging_station", "capacity": 2, "name": "Lewisham/Kitto Road", "opening_hours": "24/7", "operator": "Source London", "socket:type2": 2, "socket:type1": 2}}, {"type": "Feature", "geometry": {"type": "Point", "coordinates": [-0.073447, 51.466592]}, "properties": {"access": "customers", "amenity": "charging_station", "capacity": 1, "name": "Southwark/Danby Street", "opening_hours": "24/7", "operator": "Source London"}}, {"type": "Feature", "geometry": {"type": "Point", "coordinates": [0.031131, 51.431445]}, "properties": {"access": "customers", "amenity": "charging_station", "capacity": 2, "name": "Lewisham/Riddons Road", "opening_hours": "24/7", "operator": "Source London", "socket:type2": 2, "socket:type1": 2}}, {"type": "Feature", "geometry": {"type": "Point", "coordinates": [-0.204246, 51.516103]}, "properties": {"access": "customers", "amenity": "charging_station", "capacity": 1, "name": "Kensington and Chelsea/Talbot Road", "opening_hours": "24/7", "operator": "Source London"}}, {"type": "Feature", "geometry": {"type": "Point", "coordinates": [-0.159334, 51.501828]}, "properties": {"access": "customers", "amenity": "charging_station", "capacity": 1, "name": "Kensington and Chelsea/Seville Street", "opening_hours": "24/7", "operator": "Source London"}}, {"type": "Feature", "geometry": {"type": "Point", "coordinates": [-0.024361, 51.445703]}, "properties": {"access": "customers", "amenity": "charging_station", "capacity": 2, "name": "Lewisham/Doggett Road", "opening_hours": "24/7", "operator": "Source London", "socket:type2": 1, "socket:type1": 1}}, {"type": "Feature", "geometry": {"type": "Point", "coordinates": [-0.116363, 51.51557]}, "properties": {"access": "customers", "amenity": "charging_station", "capacity": 5, "name": "Westminster/Lincoln Inns Fields", "opening_hours": "24/7", "operator": "Source London", "socket:type2": 5, "socket:type1": 5}}, {"type": "Feature", "geometry": {"type": "Point", "coordinates": [-0.142967, 51.487632]}, "properties": {"access": "customers", "amenity": "charging_station", "capacity": 3, "name": "Westminster/Lupus Street", "opening_hours": "24/7", "operator": "Source London", "socket:type2": 3, "socket:type1": 3}}, {"type": "Feature", "geometry": {"type": "Point", "coordinates": [-0.112471, 51.511407]}, "properties": {"access": "customers", "amenity": "charging_station", "capacity": 2, "name": "Westminster/Temple Place", "opening_hours": "24/7", "operator": "Source London", "socket:type2": 2, "socket:type1": 2}}, {"type": "Feature", "geometry": {"type": "Point", "coordinates": [-0.052187, 51.501285]}, "properties": {"access": "customers", "amenity": "charging_station", "capacity": 1, "name": "Southwark/Railway Avenue", "opening_hours": "24/7", "operator": "Source London"}}, {"type": "Feature", "geometry": {"type": "Point", "coordinates": [-0.10287, 51.486837]}, "properties": {"access": "customers", "amenity": "charging_station", "capacity": 1, "name": "Southwark/Doddington Grove", "opening_hours": "24/7", "operator": "Source London"}}, {"type": "Feature", "geometry": {"type": "Point", "coordinates": [-0.090484, 51.48785]}, "properties": {"access": "customers", "amenity": "charging_station", "capacity": 1, "name": "Southwark/Trafalgar Street", "opening_hours": "24/7", "operator": "Source London"}}, {"type": "Feature", "geometry": {"type": "Point", "coordinates": [-0.101039, 51.507347]}, "properties": {"access": "customers", "amenity": "charging_station", "capacity": 1, "name": "Southwark/Holland Street", "opening_hours": "24/7", "operator": "Source London"}}, {"type": "Feature", "geometry": {"type": "Point", "coordinates": [-0.092719, 51.455684]}, "properties": {"access": "customers", "amenity": "charging_station", "capacity": 1, "name": "Southwark/Danecroft Road", "opening_hours": "24/7", "operator": "Source London"}}, {"type": "Feature", "geometry": {"type": "Point", "coordinates": [-0.097228, 51.502995]}, "properties": {"access": "customers", "amenity": "charging_station", "capacity": 1, "name": "Southwark/Copperfield Street", "opening_hours": "24/7", "operator": "Source London"}}, {"type": "Feature", "geometry": {"type": "Point", "coordinates": [-0.099251, 51.500088]}, "properties": {"access": "customers", "amenity": "charging_station", "capacity": 1, "name": "Southwark/Scovell Road", "opening_hours": "24/7", "operator": "Source London"}}, {"type": "Feature", "geometry": {"type": "Point", "coordinates": [-0.052046, 51.495797]}, "properties": {"access": "customers", "amenity": "charging_station", "capacity": 1, "name": "Southwark/Gomm Road", "opening_hours": "24/7", "operator": "Source London"}}, {"type": "Feature", "geometry": {"type": "Point", "coordinates": [-0.06968, 51.454533]}, "properties": {"access": "customers", "amenity": "charging_station", "capacity": 1, "name": "Southwark/Underhill Road", "opening_hours": "24/7", "operator": "Source London"}}, {"type": "Feature", "geometry": {"type": "Point", "coordinates": [-0.058227, 51.46527]}, "properties": {"access": "customers", "amenity": "charging_station", "capacity": 1, "name": "Southwark/Cheam Street", "opening_hours": "24/7", "operator": "Source London"}}, {"type": "Feature", "geometry": {"type": "Point", "coordinates": [-0.072503, 51.463033]}, "properties": {"access": "customers", "amenity": "charging_station", "capacity": 1, "name": "Southwark/Ondine Road", "opening_hours": "24/7", "operator": "Source London"}}, {"type": "Feature", "geometry": {"type": "Point", "coordinates": [-0.171192, 51.549692]}, "properties": {"access": "customers", "amenity": "charging_station", "capacity": 1, "name": "Camden/Belsize Place", "opening_hours": "24/7", "operator": "Source London"}}, {"type": "Feature", "geometry": {"type": "Point", "coordinates": [0.010575, 51.406908]}, "properties": {"access": "customers", "amenity": "charging_station", "capacity": 2, "name": "Bromley/Hill Car Park", "opening_hours": "24/7", "operator": "Source London", "socket:type2": 2, "socket:type1": 2}}, {"type": "Feature", "geometry": {"type": "Point", "coordinates": [0.063556, 51.491059]}, "properties": {"access": "customers", "amenity": "charging_station", "capacity": 3, "name": "Greenwich/Calderwood Car Park", "opening_hours": "24/7", "operator": "Source London", "socket:type2": 3, "socket:type1": 3}}, {"type": "Feature", "geometry": {"type": "Point", "coordinates": [-0.057225, 51.537294]}, "properties": {"access": "customers", "amenity": "charging_station", "capacity": 1, "name": "Hackney/Bocking Street", "opening_hours": "24/7", "operator": "Source London"}}, {"type": "Feature", "geometry": {"type": "Point", "coordinates": [-0.174446, 51.527837]}, "properties": {"access": "customers", "amenity": "charging_station", "capacity": 2, "name": "Westminster/Grove End Road", "opening_hours": "24/7", "operator": "Source London", "socket:type2": 2, "socket:type1": 2}}, {"type": "Feature", "geometry": {"type": "Point", "coordinates": [-0.177997, 51.616195]}, "properties": {"access": "customers", "amenity": "charging_station", "capacity": 2, "name": "Barnet/Lodge Lane Car Park", "opening_hours": "24/7", "operator": "Source London", "socket:type2": 2, "socket:type1": 2}}, {"type": "Feature", "geometry": {"type": "Point", "coordinates": [-0.199331, 51.583331]}, "properties": {"access": "customers", "amenity": "charging_station", "capacity": 2, "name": "Barnet/Finchley Road", "opening_hours": "24/7", "operator": "Source London", "socket:type2": 2, "socket:type1": 2}}, {"type": "Feature", "geometry": {"type": "Point", "coordinates": [-0.164017, 51.590449]}, "properties": {"access": "customers", "amenity": "charging_station", "capacity": 2, "name": "Barnet/High Road East Finchley", "opening_hours": "24/7", "operator": "Source London", "socket:type2": 1, "socket:type1": 1}}, {"type": "Feature", "geometry": {"type": "Point", "coordinates": [-0.249261, 51.612319]}, "properties": {"access": "customers", "amenity": "charging_station", "capacity": 2, "name": "Barnet/Bunns Lane Car Park", "opening_hours": "24/7", "operator": "Source London", "socket:type2": 1, "socket:type1": 1}}, {"type": "Feature", "geometry": {"type": "Point", "coordinates": [-0.143986, 51.516763]}, "properties": {"access": "customers", "amenity": "charging_station", "capacity": 3, "name": "Westminster/5 Cavendish Square", "opening_hours": "24/7", "operator": "Source London", "socket:type2": 3, "socket:type1": 3}}, {"type": "Feature", "geometry": {"type": "Point", "coordinates": [0.063663, 51.490248]}, "properties": {"access": "customers", "amenity": "charging_station", "capacity": 1, "name": "Greenwich/Market Street", "opening_hours": "24/7", "operator": "Source London"}}, {"type": "Feature", "geometry": {"type": "Point", "coordinates": [-0.197749, 51.481311]}, "properties": {"access": "customers", "amenity": "charging_station", "capacity": 2, "name": "Hammersmith and Fulham/Farm Lane", "opening_hours": "24/7", "operator": "Source London", "socket:type2": 2, "socket:type1": 2}}, {"type": "Feature", "geometry": {"type": "Point", "coordinates": [-0.238141, 51.515826]}, "properties": {"access": "customers", "amenity": "charging_station", "capacity": 2, "name": "Hammersmith and Fulham/Du Cane Road", "opening_hours": "24/7", "operator": "Source London", "socket:type2": 2, "socket:type1": 2}}, {"type": "Feature", "geometry": {"type": "Point", "coordinates": [-0.222421, 51.49719]}, "properties": {"access": "customers", "amenity": "charging_station", "capacity": 4, "name": "Hammersmith and Fulham/Brook Green", "opening_hours": "24/7", "operator": "Source London", "socket:type2": 4, "socket:type1": 4}}, {"type": "Feature", "geometry": {"type": "Point", "coordinates": [-0.202547, 51.486402]}, "properties": {"access": "customers", "amenity": "charging_station", "capacity": 2, "name": "Hammersmith and Fulham/Thaxton Road", "opening_hours": "24/7", "operator": "Source London", "socket:type2": 2, "socket:type1": 2}}, {"type": "Feature", "geometry": {"type": "Point", "coordinates": [-0.221179, 51.493215]}, "properties": {"access": "customers", "amenity": "charging_station", "capacity": 4, "name": "Hammersmith and Fulham/Wolverton Gardens", "opening_hours": "24/7", "operator": "Source London", "socket:type2": 4, "socket:type1": 4}}, {"type": "Feature", "geometry": {"type": "Point", "coordinates": [-0.241282, 51.493401]}, "properties": {"access": "customers", "amenity": "charging_station", "capacity": 2, "name": "Hammersmith and Fulham/Standish Road", "opening_hours": "24/7", "operator": "Source London", "socket:type2": 1, "socket:type1": 1}}, {"type": "Feature", "geometry": {"type": "Point", "coordinates": [-0.243637, 51.503346]}, "properties": {"access": "customers", "amenity": "charging_station", "capacity": 2, "name": "Hammersmith and Fulham/Gayford Road", "opening_hours": "24/7", "operator": "Source London"}}, {"type": "Feature", "geometry": {"type": "Point", "coordinates": [-0.035502, 51.415792]}, "properties": {"access": "customers", "amenity": "charging_station", "capacity": 2, "name": "Bromley/Lennard Road Car Park", "opening_hours": "24/7", "operator": "Source London", "socket:type2": 2, "socket:type1": 2}}, {"type": "Feature", "geometry": {"type": "Point", "coordinates": [-0.163237, 51.496512]}, "properties": {"access": "customers", "amenity": "charging_station", "capacity": 2, "name": "Kensington and Chelsea/Lennox Gardens ", "opening_hours": "24/7", "operator": "Source London", "socket:type2": 1, "socket:type1": 1}}, {"type": "Feature", "geometry": {"type": "Point", "coordinates": [-0.213071, 51.522236]}, "properties": {"access": "customers", "amenity": "charging_station", "capacity": 1, "name": "Kensington and Chelsea/St Charles Square", "opening_hours": "24/7", "operator": "Source London"}}, {"type": "Feature", "geometry": {"type": "Point", "coordinates": [-0.179615, 51.482386]}, "properties": {"access": "customers", "amenity": "charging_station", "capacity": 1, "name": "Kensington and Chelsea/Shalcomb Street", "opening_hours": "24/7", "operator": "Source London"}}, {"type": "Feature", "geometry": {"type": "Point", "coordinates": [-0.195606, 51.492932]}, "properties": {"access": "customers", "amenity": "charging_station", "capacity": 1, "name": "Kensington and Chelsea/Nevern Place", "opening_hours": "24/7", "operator": "Source London"}}, {"type": "Feature", "geometry": {"type": "Point", "coordinates": [-0.182473, 51.477954]}, "properties": {"access": "customers", "amenity": "charging_station", "capacity": 1, "name": "Kensington and Chelsea/Lots Road", "opening_hours": "24/7", "operator": "Source London"}}, {"type": "Feature", "geometry": {"type": "Point", "coordinates": [-0.185115, 51.501727]}, "properties": {"access": "customers", "amenity": "charging_station", "capacity": 1, "name": "Kensington and Chelsea/De Vere Gardens", "opening_hours": "24/7", "operator": "Source London"}}, {"type": "Feature", "geometry": {"type": "Point", "coordinates": [-0.161, 51.484222]}, "properties": {"access": "customers", "amenity": "charging_station", "capacity": 1, "name": "Kensington and Chelsea/Chelsea Embankment", "opening_hours": "24/7", "operator": "Source London"}}, {"type": "Feature", "geometry": {"type": "Point", "coordinates": [-0.210935, 51.507231]}, "properties": {"access": "customers", "amenity": "charging_station", "capacity": 1, "name": "Kensington and Chelsea/Norland Square ", "opening_hours": "24/7", "operator": "Source London"}}, {"type": "Feature", "geometry": {"type": "Point", "coordinates": [-0.204149, 51.509771]}, "properties": {"access": "customers", "amenity": "charging_station", "capacity": 2, "name": "Kensington and Chelsea/Ladbroke Square", "opening_hours": "24/7", "operator": "Source London", "socket:type2": 1, "socket:type1": 1}}, {"type": "Feature", "geometry": {"type": "Point", "coordinates": [-0.208495, 51.50093]}, "properties": {"access": "customers", "amenity": "charging_station", "capacity": 2, "name": "Kensington and Chelsea/Addison Crescent", "opening_hours": "24/7", "operator": "Source London", "socket:type2": 2, "socket:type1": 2}}, {"type": "Feature", "geometry": {"type": "Point", "coordinates": [-0.19843, 51.495466]}, "properties": {"access": "customers", "amenity": "charging_station", "capacity": 1, "name": "Kensington and Chelsea/Pembroke Villas ", "opening_hours": "24/7", "operator": "Source London"}}, {"type": "Feature", "geometry": {"type": "Point", "coordinates": [-0.179282, 51.497697]}, "properties": {"access": "customers", "amenity": "charging_station", "capacity": 2, "name": "Kensington and Chelsea/Queens Gate", "opening_hours": "24/7", "operator": "Source London", "socket:type2": 2, "socket:type1": 2}}, {"type": "Feature", "geometry": {"type": "Point", "coordinates": [-0.193493, 51.508097]}, "properties": {"access": "customers", "amenity": "charging_station", "capacity": 1, "name": "Kensington and Chelsea/Palace Gardens", "opening_hours": "24/7", "operator": "Source London"}}, {"type": "Feature", "geometry": {"type": "Point", "coordinates": [-0.20803, 51.492565]}, "properties": {"access": "customers", "amenity": "charging_station", "capacity": 4, "name": "Hammersmith and Fulham/North End Road", "opening_hours": "24/7", "operator": "Source London", "socket:type2": 4, "socket:type1": 4}}, {"type": "Feature", "geometry": {"type": "Point", "coordinates": [-0.149798, 51.361253]}, "properties": {"access": "customers", "amenity": "charging_station", "capacity": 2, "name": "Sutton/Melbourne Road Car Park", "opening_hours": "24/7", "operator": "Source London", "socket:type2": 2, "socket:type1": 2}}, {"type": "Feature", "geometry": {"type": "Point", "coordinates": [-0.222879, 51.487376]}, "properties": {"access": "customers", "amenity": "charging_station", "capacity": 3, "name": "Hammersmith and Fulham/Winslow Road", "opening_hours": "24/7", "operator": "Source London", "socket:type2": 3, "socket:type1": 3}}, {"type": "Feature", "geometry": {"type": "Point", "coordinates": [-0.217248, 51.35669]}, "properties": {"access": "customers", "amenity": "charging_station", "capacity": 1, "name": "Sutton/Kingsway Road Car Park", "opening_hours": "24/7", "operator": "Source London"}}, {"type": "Feature", "geometry": {"type": "Point", "coordinates": [-0.211796, 51.47393]}, "properties": {"access": "customers", "amenity": "charging_station", "capacity": 2, "name": "Hammersmith and Fulham/Lalor Street", "opening_hours": "24/7", "operator": "Source London", "socket:type2": 2, "socket:type1": 2}}, {"type": "Feature", "geometry": {"type": "Point", "coordinates": [-0.221576, 51.504847]}, "properties": {"access": "customers", "amenity": "charging_station", "capacity": 2, "name": "Hammersmith and Fulham/Caxton Road", "opening_hours": "24/7", "operator": "Source London", "socket:type2": 1, "socket:type1": 1}}, {"type": "Feature", "geometry": {"type": "Point", "coordinates": [-0.208541, 51.467493]}, "properties": {"access": "customers", "amenity": "charging_station", "capacity": 4, "name": "Hammersmith and Fulham/Ranelagh Gardens ", "opening_hours": "24/7", "operator": "Source London", "socket:type2": 4, "socket:type1": 4}}, {"type": "Feature", "geometry": {"type": "Point", "coordinates": [-0.194638, 51.4671]}, "properties": {"access": "customers", "amenity": "charging_station", "capacity": 3, "name": "Hammersmith and Fulham/Peterborough Road", "opening_hours": "24/7", "operator": "Source London", "socket:type2": 2, "socket:type1": 2}}, {"type": "Feature", "geometry": {"type": "Point", "coordinates": [-0.225333, 51.492553]}, "properties": {"access": "customers", "amenity": "charging_station", "capacity": 4, "name": "Hammersmith and Fulham/Blacks Road", "opening_hours": "24/7", "operator": "Source London", "socket:type2": 3, "socket:type1": 3}}, {"type": "Feature", "geometry": {"type": "Point", "coordinates": [-0.161786, 51.3648]}, "properties": {"access": "customers", "amenity": "charging_station", "capacity": 2, "name": "Sutton/The Square Car Park", "opening_hours": "24/7", "operator": "Source London", "socket:type2": 2, "socket:type1": 2}}, {"type": "Feature", "geometry": {"type": "Point", "coordinates": [-0.203124, 51.472294]}, "properties": {"access": "customers", "amenity": "charging_station", "capacity": 4, "name": "Hammersmith and Fulham/Eddiscombe Road", "opening_hours": "24/7", "operator": "Source London", "socket:type2": 4, "socket:type1": 4}}, {"type": "Feature", "geometry": {"type": "Point", "coordinates": [-0.189518, 51.477747]}, "properties": {"access": "customers", "amenity": "charging_station", "capacity": 3, "name": "Hammersmith and Fulham/Edith Row", "opening_hours": "24/7", "operator": "Source London", "socket:type2": 3, "socket:type1": 3}}, {"type": "Feature", "geometry": {"type": "Point", "coordinates": [-0.067105, 51.551377]}, "properties": {"access": "customers", "amenity": "charging_station", "capacity": 2, "name": "Hackney/Downs Park Road", "opening_hours": "24/7", "operator": "Source London", "socket:type2": 1, "socket:type1": 1}}, {"type": "Feature", "geometry": {"type": "Point", "coordinates": [-0.063856, 51.535415]}, "properties": {"access": "customers", "amenity": "charging_station", "capacity": 1, "name": "Hackney/Govan Street", "opening_hours": "24/7", "operator": "Source London"}}, {"type": "Feature", "geometry": {"type": "Point", "coordinates": [-0.051976, 51.536895]}, "properties": {"access": "customers", "amenity": "charging_station", "capacity": 3, "name": "Hackney/Clermont Road", "opening_hours": "24/7", "operator": "Source London", "socket:type2": 2, "socket:type1": 2}}, {"type": "Feature", "geometry": {"type": "Point", "coordinates": [-0.043322, 51.557389]}, "properties": {"access": "customers", "amenity": "charging_station", "capacity": 2, "name": "Hackney/Millsfield Road", "opening_hours": "24/7", "operator": "Source London", "socket:type2": 2, "socket:type1": 2}}, {"type": "Feature", "geometry": {"type": "Point", "coordinates": [-0.074477, 51.53956]}, "properties": {"access": "customers", "amenity": "charging_station", "capacity": 2, "name": "Hackney/Haggerston Road", "opening_hours": "24/7", "operator": "Source London", "socket:type2": 1, "socket:type1": 1}}, {"type": "Feature", "geometry": {"type": "Point", "coordinates": [-0.049518, 51.558325]}, "properties": {"access": "customers", "amenity": "charging_station", "capacity": 2, "name": "Hackney/Wattisfield Road", "opening_hours": "24/7", "operator": "Source London", "socket:type2": 2, "socket:type1": 2}}, {"type": "Feature", "geometry": {"type": "Point", "coordinates": [-0.046269, 51.553548]}, "properties": {"access": "customers", "amenity": "charging_station", "capacity": 3, "name": "Hackney/Blurton Road", "opening_hours": "24/7", "operator": "Source London", "socket:type2": 3, "socket:type1": 3}}, {"type": "Feature", "geometry": {"type": "Point", "coordinates": [-0.076974, 51.544307]}, "properties": {"access": "customers", "amenity": "charging_station", "capacity": 2, "name": "Hackney/Stamford Road", "opening_hours": "24/7", "operator": "Source London", "socket:type2": 2, "socket:type1": 2}}, {"type": "Feature", "geometry": {"type": "Point", "coordinates": [-0.056432, 51.535567]}, "properties": {"access": "customers", "amenity": "charging_station", "capacity": 3, "name": "Hackney/Victoria Park", "opening_hours": "24/7", "operator": "Source London", "socket:type2": 3, "socket:type1": 3}}, {"type": "Feature", "geometry": {"type": "Point", "coordinates": [-0.083856, 51.530142]}, "properties": {"access": "customers", "amenity": "charging_station", "capacity": 3, "name": "Hackney/New North Road", "opening_hours": "24/7", "operator": "Source London", "socket:type2": 1, "socket:type1": 1}}, {"type": "Feature", "geometry": {"type": "Point", "coordinates": [-0.25431, 51.482137]}, "properties": {"access": "customers", "amenity": "charging_station", "capacity": 3, "name": "Hounslow/Edensor Gardens", "opening_hours": "24/7", "operator": "Source London", "socket:type2": 3, "socket:type1": 3}}, {"type": "Feature", "geometry": {"type": "Point", "coordinates": [-0.286841, 51.488017]}, "properties": {"access": "customers", "amenity": "charging_station", "capacity": 3, "name": "Hounslow/Strand on Green", "opening_hours": "24/7", "operator": "Source London", "socket:type2": 3, "socket:type1": 3}}, {"type": "Feature", "geometry": {"type": "Point", "coordinates": [-0.268637, 51.481813]}, "properties": {"access": "customers", "amenity": "charging_station", "capacity": 3, "name": "Hounslow/Sutton Court Rd", "opening_hours": "24/7", "operator": "Source London", "socket:type2": 3, "socket:type1": 3}}, {"type": "Feature", "geometry": {"type": "Point", "coordinates": [-0.3576, 51.473167]}, "properties": {"access": "customers", "amenity": "charging_station", "capacity": 3, "name": "Hounslow/Tiverton Road", "opening_hours": "24/7", "operator": "Source London", "socket:type2": 3, "socket:type1": 3}}, {"type": "Feature", "geometry": {"type": "Point", "coordinates": [-0.258529, 51.492128]}, "properties": {"access": "customers", "amenity": "charging_station", "capacity": 2, "name": "Hounslow/Linden Gardens", "opening_hours": "24/7", "operator": "Source London", "socket:type2": 2, "socket:type1": 2}}, {"type": "Feature", "geometry": {"type": "Point", "coordinates": [-0.365712, 51.470808]}, "properties": {"access": "customers", "amenity": "charging_station", "capacity": 3, "name": "Hounslow/Queens Road", "opening_hours": "24/7", "operator": "Source London", "socket:type2": 3, "socket:type1": 3}}, {"type": "Feature", "geometry": {"type": "Point", "coordinates": [-0.236688, 51.498266]}, "properties": {"access": "customers", "amenity": "charging_station", "capacity": 4, "name": "Hammersmith and Fulham/Paddenswick Road", "opening_hours": "24/7", "operator": "Source London", "socket:type2": 4, "socket:type1": 4}}, {"type": "Feature", "geometry": {"type": "Point", "coordinates": [-0.247178, 51.516778]}, "properties": {"access": "customers", "amenity": "charging_station", "capacity": 3, "name": "Hammersmith and Fulham/Erconwald Street", "opening_hours": "24/7", "operator": "Source London", "socket:type2": 3, "socket:type1": 3}}, {"type": "Feature", "geometry": {"type": "Point", "coordinates": [-0.184571, 51.470203]}, "properties": {"access": "customers", "amenity": "charging_station", "capacity": 3, "name": "Hammersmith and Fulham/Watermeadow Lane", "opening_hours": "24/7", "operator": "Source London", "socket:type2": 3, "socket:type1": 3}}, {"type": "Feature", "geometry": {"type": "Point", "coordinates": [-0.246392, 51.498432]}, "properties": {"access": "customers", "amenity": "charging_station", "capacity": 3, "name": "Hammersmith and Fulham/Hartswood Road", "opening_hours": "24/7", "operator": "Source London", "socket:type2": 3, "socket:type1": 3}}, {"type": "Feature", "geometry": {"type": "Point", "coordinates": [-0.214838, 51.49009]}, "properties": {"access": "customers", "amenity": "charging_station", "capacity": 4, "name": "Hammersmith and Fulham/Margravine Gardens", "opening_hours": "24/7", "operator": "Source London", "socket:type2": 4, "socket:type1": 4}}, {"type": "Feature", "geometry": {"type": "Point", "coordinates": [-0.24047, 51.506822]}, "properties": {"access": "customers", "amenity": "charging_station", "capacity": 4, "name": "Hammersmith and Fulham/Wormholt Road", "opening_hours": "24/7", "operator": "Source London", "socket:type2": 4, "socket:type1": 4}}, {"type": "Feature", "geometry": {"type": "Point", "coordinates": [-0.236586, 51.530793]}, "properties": {"access": "customers", "amenity": "charging_station", "capacity": 3, "name": "Hammersmith and Fulham/Waldo Road", "opening_hours": "24/7", "operator": "Source London", "socket:type2": 3, "socket:type1": 3}}, {"type": "Feature", "geometry": {"type": "Point", "coordinates": [-0.203517, 51.478553]}, "properties": {"access": "customers", "amenity": "charging_station", "capacity": 5, "name": "Hammersmith and Fulham/Kelvedon Road", "opening_hours": "24/7", "operator": "Source London", "socket:type2": 5, "socket:type1": 5}}, {"type": "Feature", "geometry": {"type": "Point", "coordinates": [-0.228317, 51.501297]}, "properties": {"access": "customers", "amenity": "charging_station", "capacity": 4, "name": "Hammersmith and Fulham/Hammersmith Grove", "opening_hours": "24/7", "operator": "Source London", "socket:type2": 4, "socket:type1": 4}}, {"type": "Feature", "geometry": {"type": "Point", "coordinates": [-0.235887, 51.51008]}, "properties": {"access": "customers", "amenity": "charging_station", "capacity": 4, "name": "Hammersmith and Fulham/Sawley Road", "opening_hours": "24/7", "operator": "Source London", "socket:type2": 3, "socket:type1": 3}}, {"type": "Feature", "geometry": {"type": "Point", "coordinates": [-0.184763, 51.47338]}, "properties": {"access": "customers", "amenity": "charging_station", "capacity": 3, "name": "Hammersmith and Fulham/Bagleys Lane", "opening_hours": "24/7", "operator": "Source London", "socket:type2": 3, "socket:type1": 3}}, {"type": "Feature", "geometry": {"type": "Point", "coordinates": [-0.188761, 51.42415]}, "properties": {"access": "customers", "amenity": "charging_station", "capacity": 3, "name": "Merton/Cowdrey Road", "opening_hours": "24/7", "operator": "Source London", "socket:type2": 3, "socket:type1": 3}}, {"type": "Feature", "geometry": {"type": "Point", "coordinates": [-0.220658, 51.425174]}, "properties": {"access": "customers", "amenity": "charging_station", "capacity": 2, "name": "Merton/High Street Wimbledon", "opening_hours": "24/7", "operator": "Source London", "socket:type2": 2, "socket:type1": 2}}, {"type": "Feature", "geometry": {"type": "Point", "coordinates": [-0.160294, 51.417458]}, "properties": {"access": "customers", "amenity": "charging_station", "capacity": 2, "name": "Merton/Gorringe Park", "opening_hours": "24/7", "operator": "Source London", "socket:type2": 2, "socket:type1": 2}}, {"type": "Feature", "geometry": {"type": "Point", "coordinates": [-0.200021, 51.427355]}, "properties": {"access": "customers", "amenity": "charging_station", "capacity": 2, "name": "Merton/Strathearn Road", "opening_hours": "24/7", "operator": "Source London", "socket:type2": 2, "socket:type1": 2}}, {"type": "Feature", "geometry": {"type": "Point", "coordinates": [-0.199955, 51.421575]}, "properties": {"access": "customers", "amenity": "charging_station", "capacity": 3, "name": "Merton/Dudley Road", "opening_hours": "24/7", "operator": "Source London", "socket:type2": 3, "socket:type1": 3}}, {"type": "Feature", "geometry": {"type": "Point", "coordinates": [-0.205151, 51.403321]}, "properties": {"access": "customers", "amenity": "charging_station", "capacity": 3, "name": "Merton/Mostyn Road", "opening_hours": "24/7", "operator": "Source London", "socket:type2": 3, "socket:type1": 3}}, {"type": "Feature", "geometry": {"type": "Point", "coordinates": [-0.239133, 51.394518]}, "properties": {"access": "customers", "amenity": "charging_station", "capacity": 2, "name": "Merton/West Barnes Lane", "opening_hours": "24/7", "operator": "Source London", "socket:type2": 2, "socket:type1": 2}}, {"type": "Feature", "geometry": {"type": "Point", "coordinates": [-0.213678, 51.409317]}, "properties": {"access": "customers", "amenity": "charging_station", "capacity": 2, "name": "Merton/Kingston Road", "opening_hours": "24/7", "operator": "Source London", "socket:type2": 2, "socket:type1": 2}}, {"type": "Feature", "geometry": {"type": "Point", "coordinates": [-0.164648, 51.455627]}, "properties": {"access": "customers", "amenity": "charging_station", "capacity": 2, "name": "Wandsworth/Bramfield Road", "opening_hours": "24/7", "operator": "Source London", "socket:type2": 2, "socket:type1": 2}}, {"type": "Feature", "geometry": {"type": "Point", "coordinates": [-0.203919, 51.444869]}, "properties": {"access": "customers", "amenity": "charging_station", "capacity": 3, "name": "Wandsworth/Clonmore Street", "opening_hours": "24/7", "operator": "Source London", "socket:type2": 2, "socket:type1": 2}}, {"type": "Feature", "geometry": {"type": "Point", "coordinates": [-0.18982, 51.445857]}, "properties": {"access": "customers", "amenity": "charging_station", "capacity": 5, "name": "Wandsworth/Haldane Place", "opening_hours": "24/7", "operator": "Source London", "socket:type2": 4, "socket:type1": 4}}, {"type": "Feature", "geometry": {"type": "Point", "coordinates": [-0.1498, 51.477533]}, "properties": {"access": "customers", "amenity": "charging_station", "capacity": 3, "name": "Wandsworth/Prince of Wales Drive1", "opening_hours": "24/7", "operator": "Source London", "socket:type2": 3, "socket:type1": 3}}, {"type": "Feature", "geometry": {"type": "Point", "coordinates": [-0.158887, 51.423496]}, "properties": {"access": "customers", "amenity": "charging_station", "capacity": 3, "name": "Wandsworth/Rectory Lane", "opening_hours": "24/7", "operator": "Source London", "socket:type2": 3, "socket:type1": 3}}, {"type": "Feature", "geometry": {"type": "Point", "coordinates": [-0.149914, 51.443741]}, "properties": {"access": "customers", "amenity": "charging_station", "capacity": 3, "name": "Wandsworth/Sistova Road", "opening_hours": "24/7", "operator": "Source London", "socket:type2": 2, "socket:type1": 2}}, {"type": "Feature", "geometry": {"type": "Point", "coordinates": [-0.156855, 51.430398]}, "properties": {"access": "customers", "amenity": "charging_station", "capacity": 3, "name": "Wandsworth/Brudenell Road", "opening_hours": "24/7", "operator": "Source London", "socket:type2": 3, "socket:type1": 3}}, {"type": "Feature", "geometry": {"type": "Point", "coordinates": [-0.147078, 51.419227]}, "properties": {"access": "customers", "amenity": "charging_station", "capacity": 3, "name": "Wandsworth/Fallsbrook Road", "opening_hours": "24/7", "operator": "Source London", "socket:type2": 3, "socket:type1": 3}}, {"type": "Feature", "geometry": {"type": "Point", "coordinates": [-0.148574, 51.434898]}, "properties": {"access": "customers", "amenity": "charging_station", "capacity": 3, "name": "Wandsworth/Hillbury Road", "opening_hours": "24/7", "operator": "Source London", "socket:type2": 3, "socket:type1": 3}}, {"type": "Feature", "geometry": {"type": "Point", "coordinates": [-0.178764, 51.439445]}, "properties": {"access": "customers", "amenity": "charging_station", "capacity": 3, "name": "Wandsworth/Open view", "opening_hours": "24/7", "operator": "Source London", "socket:type2": 3, "socket:type1": 3}}, {"type": "Feature", "geometry": {"type": "Point", "coordinates": [-0.38673, 51.463713]}, "properties": {"access": "customers", "amenity": "charging_station", "capacity": 2, "name": "Hounslow/Gloucester Road", "opening_hours": "24/7", "operator": "Source London", "socket:type2": 2, "socket:type1": 2}}, {"type": "Feature", "geometry": {"type": "Point", "coordinates": [-0.36173, 51.461955]}, "properties": {"access": "customers", "amenity": "charging_station", "capacity": 2, "name": "Hounslow/Maswell Park Road", "opening_hours": "24/7", "operator": "Source London", "socket:type2": 2, "socket:type1": 2}}, {"type": "Feature", "geometry": {"type": "Point", "coordinates": [-0.348132, 51.482509]}, "properties": {"access": "customers", "amenity": "charging_station", "capacity": 2, "name": "Hounslow/Osterley Ave", "opening_hours": "24/7", "operator": "Source London", "socket:type2": 2, "socket:type1": 2}}, {"type": "Feature", "geometry": {"type": "Point", "coordinates": [-0.310949, 51.48751]}, "properties": {"access": "customers", "amenity": "charging_station", "capacity": 2, "name": "Hounslow/Station Road", "opening_hours": "24/7", "operator": "Source London", "socket:type2": 2, "socket:type1": 2}}, {"type": "Feature", "geometry": {"type": "Point", "coordinates": [-0.320709, 51.480195]}, "properties": {"access": "customers", "amenity": "charging_station", "capacity": 2, "name": "Hounslow/Syon Lane", "opening_hours": "24/7", "operator": "Source London", "socket:type2": 2, "socket:type1": 2}}, {"type": "Feature", "geometry": {"type": "Point", "coordinates": [-0.331147, 51.427011]}, "properties": {"access": "customers", "amenity": "charging_station", "capacity": 5, "name": "Richmond Upon Thames/Cedar Road CP", "opening_hours": "24/7", "operator": "Source London", "socket:type2": 5, "socket:type1": 5}}, {"type": "Feature", "geometry": {"type": "Point", "coordinates": [-0.325243, 51.447627]}, "properties": {"access": "customers", "amenity": "charging_station", "capacity": 2, "name": "Richmond Upon Thames/York House CP", "opening_hours": "24/7", "operator": "Source London", "socket:type2": 2, "socket:type1": 2}}, {"type": "Feature", "geometry": {"type": "Point", "coordinates": [-0.205982, 51.534636]}, "properties": {"access": "customers", "amenity": "charging_station", "capacity": 1, "name": "Brent/Dudley Road Brent", "opening_hours": "24/7", "operator": "Source London"}}, {"type": "Feature", "geometry": {"type": "Point", "coordinates": [0.020129, 51.421078]}, "properties": {"access": "customers", "amenity": "charging_station", "capacity": 4, "name": "Bromley/Burnt Ash Lane CP", "opening_hours": "24/7", "operator": "Source London", "socket:type2": 4, "socket:type1": 4}}, {"type": "Feature", "geometry": {"type": "Point", "coordinates": [0.005166, 51.394042]}, "properties": {"access": "customers", "amenity": "charging_station", "capacity": 2, "name": "Bromley/South Hill Road", "opening_hours": "24/7", "operator": "Source London", "socket:type2": 1, "socket:type1": 1}}, {"type": "Feature", "geometry": {"type": "Point", "coordinates": [0.105928, 51.356644]}, "properties": {"access": "customers", "amenity": "charging_station", "capacity": 2, "name": "Bromley/The Meadway", "opening_hours": "24/7", "operator": "Source London", "socket:type2": 2, "socket:type1": 2}}, {"type": "Feature", "geometry": {"type": "Point", "coordinates": [-0.269531, 51.481601]}, "properties": {"access": "customers", "amenity": "charging_station", "capacity": 2, "name": "Hounslow/Spencer Road", "opening_hours": "24/7", "operator": "Source London", "socket:type2": 2, "socket:type1": 2}}, {"type": "Feature", "geometry": {"type": "Point", "coordinates": [-0.157295, 51.512731]}, "properties": {"access": "customers", "amenity": "charging_station", "capacity": 2, "name": "Westminster/Dunraven Street", "opening_hours": "24/7", "operator": "Source London", "socket:type2": 2, "socket:type1": 2}}, {"type": "Feature", "geometry": {"type": "Point", "coordinates": [-0.151436, 51.510791]}, "properties": {"access": "customers", "amenity": "charging_station", "capacity": 3, "name": "Westminster/Grosvenor Square", "opening_hours": "24/7", "operator": "Source London", "socket:type2": 2, "socket:type1": 2}}, {"type": "Feature", "geometry": {"type": "Point", "coordinates": [0.009558, 51.377159]}, "properties": {"access": "customers", "amenity": "charging_station", "capacity": 2, "name": "Bromley/Hayes Station Car Park", "opening_hours": "24/7", "operator": "Source London", "socket:type2": 2, "socket:type1": 2}}, {"type": "Feature", "geometry": {"type": "Point", "coordinates": [-0.184133, 51.530869]}, "properties": {"access": "customers", "amenity": "charging_station", "capacity": 3, "name": "Westminster/Abercorn Place", "opening_hours": "24/7", "operator": "Source London", "socket:type2": 2, "socket:type1": 2}}, {"type": "Feature", "geometry": {"type": "Point", "coordinates": [-0.152048, 51.499232]}, "properties": {"access": "customers", "amenity": "charging_station", "capacity": 5, "name": "Westminster/Belgrave Square 38", "opening_hours": "24/7", "operator": "Source London", "socket:type2": 5, "socket:type1": 5}}, {"type": "Feature", "geometry": {"type": "Point", "coordinates": [-0.18899, 51.525356]}, "properties": {"access": "customers", "amenity": "charging_station", "capacity": 3, "name": "Westminster/Delaware Road", "opening_hours": "24/7", "operator": "Source London", "socket:type2": 2, "socket:type1": 2}}, {"type": "Feature", "geometry": {"type": "Point", "coordinates": [-0.172009, 51.538302]}, "properties": {"access": "customers", "amenity": "charging_station", "capacity": 2, "name": "Westminster/Queens Grove", "opening_hours": "24/7", "operator": "Source London", "socket:type2": 2, "socket:type1": 2}}, {"type": "Feature", "geometry": {"type": "Point", "coordinates": [-0.229048, 51.489782]}, "properties": {"access": "customers", "amenity": "charging_station", "capacity": 2, "name": "Hammersmith and Fulham/Hammersmith Bridge", "opening_hours": "24/7", "operator": "Source London", "socket:type2": 1, "socket:type1": 1}}, {"type": "Feature", "geometry": {"type": "Point", "coordinates": [-0.208422, 51.495251]}, "properties": {"access": "customers", "amenity": "charging_station", "capacity": 2, "name": "Hammersmith and Fulham/Avonmore Road", "opening_hours": "24/7", "operator": "Source London", "socket:type2": 2, "socket:type1": 2}}, {"type": "Feature", "geometry": {"type": "Point", "coordinates": [-0.224786, 51.508059]}, "properties": {"access": "customers", "amenity": "charging_station", "capacity": 2, "name": "Hammersmith and Fulham/MacFarlane Road", "opening_hours": "24/7", "operator": "Source London", "socket:type2": 2, "socket:type1": 2}}, {"type": "Feature", "geometry": {"type": "Point", "coordinates": [-0.196868, 51.470147]}, "properties": {"access": "customers", "amenity": "charging_station", "capacity": 3, "name": "Hammersmith and Fulham/Clancarty Street", "opening_hours": "24/7", "operator": "Source London", "socket:type2": 2, "socket:type1": 2}}, {"type": "Feature", "geometry": {"type": "Point", "coordinates": [-0.154176, 51.499688]}, "properties": {"access": "customers", "amenity": "charging_station", "capacity": 5, "name": "Westminster/Belgrave Square 5", "opening_hours": "24/7", "operator": "Source London", "socket:type2": 5, "socket:type1": 5}}, {"type": "Feature", "geometry": {"type": "Point", "coordinates": [-0.083629, 51.539661]}, "properties": {"access": "customers", "amenity": "charging_station", "capacity": 2, "name": "Hackney/Ufton Road", "opening_hours": "24/7", "operator": "Source London", "socket:type2": 2, "socket:type1": 2}}, {"type": "Feature", "geometry": {"type": "Point", "coordinates": [-0.165918, 51.480664]}, "properties": {"access": "customers", "amenity": "charging_station", "capacity": 3, "name": "Wandsworth/Albert Bridge Road", "opening_hours": "24/7", "operator": "Source London", "socket:type2": 3, "socket:type1": 3}}, {"type": "Feature", "geometry": {"type": "Point", "coordinates": [-0.224123, 51.484168]}, "properties": {"access": "customers", "amenity": "charging_station", "capacity": 3, "name": "Hammersmith and Fulham/Rainville Road", "opening_hours": "24/7", "operator": "Source London", "socket:type2": 3, "socket:type1": 3}}, {"type": "Feature", "geometry": {"type": "Point", "coordinates": [-0.243259, 51.510552]}, "properties": {"access": "customers", "amenity": "charging_station", "capacity": 3, "name": "Hammersmith and Fulham/Steventon Road", "opening_hours": "24/7", "operator": "Source London", "socket:type2": 3, "socket:type1": 3}}, {"type": "Feature", "geometry": {"type": "Point", "coordinates": [-0.189379, 51.459932]}, "properties": {"access": "customers", "amenity": "charging_station", "capacity": 3, "name": "Wandsworth/Edgel Street", "opening_hours": "24/7", "operator": "Source London", "socket:type2": 2, "socket:type1": 2}}, {"type": "Feature", "geometry": {"type": "Point", "coordinates": [-0.237975, 51.451006]}, "properties": {"access": "customers", "amenity": "charging_station", "capacity": 3, "name": "Wandsworth/Longwood Drive", "opening_hours": "24/7", "operator": "Source London", "socket:type2": 3, "socket:type1": 3}}, {"type": "Feature", "geometry": {"type": "Point", "coordinates": [-0.156793, 51.465531]}, "properties": {"access": "customers", "amenity": "charging_station", "capacity": 3, "name": "Wandsworth/Pountney Road", "opening_hours": "24/7", "operator": "Source London", "socket:type2": 3, "socket:type1": 3}}, {"type": "Feature", "geometry": {"type": "Point", "coordinates": [-0.170256, 51.470148]}, "properties": {"access": "customers", "amenity": "charging_station", "capacity": 3, "name": "Wandsworth/Cabul Road", "opening_hours": "24/7", "operator": "Source London", "socket:type2": 3, "socket:type1": 3}}, {"type": "Feature", "geometry": {"type": "Point", "coordinates": [-0.220303, 51.457259]}, "properties": {"access": "customers", "amenity": "charging_station", "capacity": 4, "name": "Wandsworth/Chartfield Avenue", "opening_hours": "24/7", "operator": "Source London", "socket:type2": 4, "socket:type1": 4}}, {"type": "Feature", "geometry": {"type": "Point", "coordinates": [-0.227479, 51.468572]}, "properties": {"access": "customers", "amenity": "charging_station", "capacity": 2, "name": "Wandsworth/Commondale", "opening_hours": "24/7", "operator": "Source London", "socket:type2": 2, "socket:type1": 2}}, {"type": "Feature", "geometry": {"type": "Point", "coordinates": [-0.209949, 51.458459]}, "properties": {"access": "customers", "amenity": "charging_station", "capacity": 3, "name": "Wandsworth/Keswick Road", "opening_hours": "24/7", "operator": "Source London", "socket:type2": 3, "socket:type1": 3}}, {"type": "Feature", "geometry": {"type": "Point", "coordinates": [-0.162132, 51.474895]}, "properties": {"access": "customers", "amenity": "charging_station", "capacity": 3, "name": "Wandsworth/Prince of Wales Drive28", "opening_hours": "24/7", "operator": "Source London", "socket:type2": 3, "socket:type1": 3}}, {"type": "Feature", "geometry": {"type": "Point", "coordinates": [-0.197525, 51.454842]}, "properties": {"access": "customers", "amenity": "charging_station", "capacity": 3, "name": "Wandsworth/Broomhill Road", "opening_hours": "24/7", "operator": "Source London", "socket:type2": 3, "socket:type1": 3}}, {"type": "Feature", "geometry": {"type": "Point", "coordinates": [-0.167965, 51.467693]}, "properties": {"access": "customers", "amenity": "charging_station", "capacity": 3, "name": "Wandsworth/Este Road", "opening_hours": "24/7", "operator": "Source London", "socket:type2": 3, "socket:type1": 3}}, {"type": "Feature", "geometry": {"type": "Point", "coordinates": [-0.209454, 51.452005]}, "properties": {"access": "customers", "amenity": "charging_station", "capacity": 3, "name": "Wandsworth/Sutherland Grove", "opening_hours": "24/7", "operator": "Source London", "socket:type2": 3, "socket:type1": 3}}, {"type": "Feature", "geometry": {"type": "Point", "coordinates": [-0.186616, 51.436644]}, "properties": {"access": "customers", "amenity": "charging_station", "capacity": 2, "name": "Wandsworth/Waldron Road", "opening_hours": "24/7", "operator": "Source London", "socket:type2": 2, "socket:type1": 2}}, {"type": "Feature", "geometry": {"type": "Point", "coordinates": [-0.216252, 51.46663]}, "properties": {"access": "customers", "amenity": "charging_station", "capacity": 3, "name": "Wandsworth/Waterman Street", "opening_hours": "24/7", "operator": "Source London", "socket:type2": 3, "socket:type1": 3}}, {"type": "Feature", "geometry": {"type": "Point", "coordinates": [-0.181572, 51.43251]}, "properties": {"access": "customers", "amenity": "charging_station", "capacity": 3, "name": "Wandsworth/Wimbledon Road", "opening_hours": "24/7", "operator": "Source London", "socket:type2": 3, "socket:type1": 3}}, {"type": "Feature", "geometry": {"type": "Point", "coordinates": [-0.180898, 51.453839]}, "properties": {"access": "customers", "amenity": "charging_station", "capacity": 3, "name": "Wandsworth/Heathfield Road", "opening_hours": "24/7", "operator": "Source London", "socket:type2": 3, "socket:type1": 3}}, {"type": "Feature", "geometry": {"type": "Point", "coordinates": [-0.176039, 51.472819]}, "properties": {"access": "customers", "amenity": "charging_station", "capacity": 3, "name": "Wandsworth/Vicarage Crescent", "opening_hours": "24/7", "operator": "Source London", "socket:type2": 3, "socket:type1": 3}}, {"type": "Feature", "geometry": {"type": "Point", "coordinates": [-0.172894, 51.554718]}, "properties": {"access": "customers", "amenity": "charging_station", "capacity": 1, "name": "Camden/Shepherds Walk", "opening_hours": "24/7", "operator": "Source London"}}, {"type": "Feature", "geometry": {"type": "Point", "coordinates": [-0.179942, 51.545485]}, "properties": {"access": "customers", "amenity": "charging_station", "capacity": 1, "name": "Camden/Goldhurst Terrace", "opening_hours": "24/7", "operator": "Source London"}}, {"type": "Feature", "geometry": {"type": "Point", "coordinates": [-0.252181, 51.453233]}, "properties": {"access": "customers", "amenity": "charging_station", "capacity": 3, "name": "Wandsworth/Danebury Avenue", "opening_hours": "24/7", "operator": "Source London", "socket:type2": 3, "socket:type1": 3}}, {"type": "Feature", "geometry": {"type": "Point", "coordinates": [-0.219249, 51.5076]}, "properties": {"access": "customers", "amenity": "charging_station", "capacity": 1, "name": "Hammersmith and Fulham/Westfield Hammersmith, level -2 taxi stand (Aisle 52)", "opening_hours": "24/7", "operator": "Source London"}}, {"type": "Feature", "geometry": {"type": "Point", "coordinates": [-0.206377, 51.482756]}, "properties": {"access": "customers", "amenity": "charging_station", "capacity": 3, "name": "Hammersmith and Fulham/Rylston Road", "opening_hours": "24/7", "operator": "Source London", "socket:type2": 3, "socket:type1": 3}}, {"type": "Feature", "geometry": {"type": "Point", "coordinates": [-0.228623, 51.516726]}, "properties": {"access": "customers", "amenity": "charging_station", "capacity": 3, "name": "Hammersmith and Fulham/Du Cane Road Pankhurst House", "opening_hours": "24/7", "operator": "Source London", "socket:type2": 3, "socket:type1": 3}}, {"type": "Feature", "geometry": {"type": "Point", "coordinates": [0.115592, 51.526588]}, "properties": {"access": "customers", "amenity": "charging_station", "capacity": 3, "name": "Barking and Dagenham/Bastable Avenue 342", "opening_hours": "24/7", "operator": "Source London", "socket:type2": 3, "socket:type1": 3}}, {"type": "Feature", "geometry": {"type": "Point", "coordinates": [0.095566, 51.527514]}, "properties": {"access": "customers", "amenity": "charging_station", "capacity": 3, "name": "Barking and Dagenham/Bastable Avenue 2", "opening_hours": "24/7", "operator": "Source London", "socket:type2": 3, "socket:type1": 3}}, {"type": "Feature", "geometry": {"type": "Point", "coordinates": [0.147652, 51.560529]}, "properties": {"access": "customers", "amenity": "charging_station", "capacity": 3, "name": "Barking and Dagenham/Becontree Avenue 692", "opening_hours": "24/7", "operator": "Source London", "socket:type2": 3, "socket:type1": 3}}, {"type": "Feature", "geometry": {"type": "Point", "coordinates": [0.127974, 51.558693]}, "properties": {"access": "customers", "amenity": "charging_station", "capacity": 3, "name": "Barking and Dagenham/Becontree Avenue Car Park", "opening_hours": "24/7", "operator": "Source London", "socket:type2": 3, "socket:type1": 3}}, {"type": "Feature", "geometry": {"type": "Point", "coordinates": [0.147195, 51.526841]}, "properties": {"access": "customers", "amenity": "charging_station", "capacity": 3, "name": "Barking and Dagenham/Chequers Lane", "opening_hours": "24/7", "operator": "Source London", "socket:type2": 3, "socket:type1": 3}}, {"type": "Feature", "geometry": {"type": "Point", "coordinates": [0.1757, 51.564482]}, "properties": {"access": "customers", "amenity": "charging_station", "capacity": 3, "name": "Barking and Dagenham/Dagenham Road Car Park", "opening_hours": "24/7", "operator": "Source London", "socket:type2": 3, "socket:type1": 3}}, {"type": "Feature", "geometry": {"type": "Point", "coordinates": [0.148167, 51.53912]}, "properties": {"access": "customers", "amenity": "charging_station", "capacity": 3, "name": "Barking and Dagenham/Heathway", "opening_hours": "24/7", "operator": "Source London", "socket:type2": 3, "socket:type1": 3}}, {"type": "Feature", "geometry": {"type": "Point", "coordinates": [0.127042, 51.534065]}, "properties": {"access": "customers", "amenity": "charging_station", "capacity": 3, "name": "Barking and Dagenham/Gale Street", "opening_hours": "24/7", "operator": "Source London", "socket:type2": 3, "socket:type1": 3}}, {"type": "Feature", "geometry": {"type": "Point", "coordinates": [0.133992, 51.571381]}, "properties": {"access": "customers", "amenity": "charging_station", "capacity": 3, "name": "Barking and Dagenham/High Road Romford 72", "opening_hours": "24/7", "operator": "Source London", "socket:type2": 3, "socket:type1": 3}}, {"type": "Feature", "geometry": {"type": "Point", "coordinates": [0.127968, 51.541562]}, "properties": {"access": "customers", "amenity": "charging_station", "capacity": 3, "name": "Barking and Dagenham/Ivyhouse Road", "opening_hours": "24/7", "operator": "Source London", "socket:type2": 2, "socket:type1": 2}}, {"type": "Feature", "geometry": {"type": "Point", "coordinates": [0.101198, 51.539923]}, "properties": {"access": "customers", "amenity": "charging_station", "capacity": 3, "name": "Barking and Dagenham/The Drive", "opening_hours": "24/7", "operator": "Source London", "socket:type2": 2, "socket:type1": 2}}, {"type": "Feature", "geometry": {"type": "Point", "coordinates": [0.094433, 51.545232]}, "properties": {"access": "customers", "amenity": "charging_station", "capacity": 3, "name": "Barking and Dagenham/Upney Lane", "opening_hours": "24/7", "operator": "Source London", "socket:type2": 3, "socket:type1": 3}}, {"type": "Feature", "geometry": {"type": "Point", "coordinates": [-0.252498, 51.502588]}, "properties": {"access": "customers", "amenity": "charging_station", "capacity": 3, "name": "Hammersmith and Fulham/Cobbold Road", "opening_hours": "24/7", "operator": "Source London", "socket:type2": 3, "socket:type1": 3}}, {"type": "Feature", "geometry": {"type": "Point", "coordinates": [-0.211037, 51.478133]}, "properties": {"access": "customers", "amenity": "charging_station", "capacity": 3, "name": "Hammersmith and Fulham/Danehurst Street", "opening_hours": "24/7", "operator": "Source London", "socket:type2": 3, "socket:type1": 3}}, {"type": "Feature", "geometry": {"type": "Point", "coordinates": [-0.235769, 51.503731]}, "properties": {"access": "customers", "amenity": "charging_station", "capacity": 3, "name": "Hammersmith and Fulham/Goodwin Road", "opening_hours": "24/7", "operator": "Source London", "socket:type2": 3, "socket:type1": 3}}, {"type": "Feature", "geometry": {"type": "Point", "coordinates": [-0.217437, 51.501988]}, "properties": {"access": "customers", "amenity": "charging_station", "capacity": 2, "name": "Hammersmith and Fulham/Richmond Way W14", "opening_hours": "24/7", "operator": "Source London", "socket:type2": 1, "socket:type1": 1}}, {"type": "Feature", "geometry": {"type": "Point", "coordinates": [-0.219249, 51.5075]}, "properties": {"access": "customers", "amenity": "charging_station", "capacity": 1, "name": "Hammersmith and Fulham/Westfield Hammersmith, level -2 taxi stand (Aisle 52)FP2", "opening_hours": "24/7", "operator": "Source London"}}, {"type": "Feature", "geometry": {"type": "Point", "coordinates": [0.018438, 51.400333]}, "properties": {"access": "customers", "amenity": "charging_station", "capacity": 1, "name": "Bromley/Elmfield Park Road", "opening_hours": "24/7", "operator": "Source London"}}, {"type": "Feature", "geometry": {"type": "Point", "coordinates": [-0.19497, 51.484226]}, "properties": {"access": "customers", "amenity": "charging_station", "capacity": 2, "name": "Hammersmith and Fulham/Seagrave Road", "opening_hours": "24/7", "operator": "Source London", "socket:type2": 2, "socket:type1": 2}}, {"type": "Feature", "geometry": {"type": "Point", "coordinates": [-0.224383, 51.486744]}, "properties": {"access": "customers", "amenity": "charging_station", "capacity": 2, "name": "Hammersmith and Fulham/Manbre Road", "opening_hours": "24/7", "operator": "Source London", "socket:type2": 2, "socket:type1": 2}}, {"type": "Feature", "geometry": {"type": "Point", "coordinates": [-0.104873, 51.522255]}, "properties": {"access": "customers", "amenity": "charging_station", "capacity": 2, "name": "Islington/Britton Street", "opening_hours": "24/7", "operator": "Source London", "socket:type2": 2, "socket:type1": 2}}, {"type": "Feature", "geometry": {"type": "Point", "coordinates": [-0.103218, 51.520115]}, "properties": {"access": "customers", "amenity": "charging_station", "capacity": 1, "name": "Islington/Cowcross Street", "opening_hours": "24/7", "operator": "Source London"}}, {"type": "Feature", "geometry": {"type": "Point", "coordinates": [-0.107519, 51.524483]}, "properties": {"access": "customers", "amenity": "charging_station", "capacity": 3, "name": "Islington/Bowling Green Lane", "opening_hours": "24/7", "operator": "Source London", "socket:type2": 2, "socket:type1": 2}}, {"type": "Feature", "geometry": {"type": "Point", "coordinates": [-0.104895, 51.528326]}, "properties": {"access": "customers", "amenity": "charging_station", "capacity": 2, "name": "Islington/Saint John Street 327", "opening_hours": "24/7", "operator": "Source London", "socket:type2": 2, "socket:type1": 2}}, {"type": "Feature", "geometry": {"type": "Point", "coordinates": [-0.101815, 51.52056]}, "properties": {"access": "customers", "amenity": "charging_station", "capacity": 2, "name": "Islington/Saint John Street 29", "opening_hours": "24/7", "operator": "Source London", "socket:type2": 2, "socket:type1": 2}}, {"type": "Feature", "geometry": {"type": "Point", "coordinates": [-0.109522, 51.530783]}, "properties": {"access": "customers", "amenity": "charging_station", "capacity": 3, "name": "Islington/Mylne Street", "opening_hours": "24/7", "operator": "Source London", "socket:type2": 3, "socket:type1": 3}}, {"type": "Feature", "geometry": {"type": "Point", "coordinates": [-0.226235, 51.494334]}, "properties": {"access": "customers", "amenity": "charging_station", "capacity": 1, "name": "Hammersmith and Fulham/Hammersmith Grove 5A", "opening_hours": "24/7", "operator": "Source London"}}, {"type": "Feature", "geometry": {"type": "Point", "coordinates": [-0.226256, 51.494321]}, "properties": {"access": "customers", "amenity": "charging_station", "capacity": 1, "name": "Hammersmith and Fulham/Hammersmith Grove 5B", "opening_hours": "24/7", "operator": "Source London"}}, {"type": "Feature", "geometry": {"type": "Point", "coordinates": [-0.11616, 51.570097]}, "properties": {"access": "customers", "amenity": "charging_station", "capacity": 2, "name": "Islington/Hanley Road", "opening_hours": "24/7", "operator": "Source London", "socket:type2": 2, "socket:type1": 2}}, {"type": "Feature", "geometry": {"type": "Point", "coordinates": [-0.09416, 51.535445]}, "properties": {"access": "customers", "amenity": "charging_station", "capacity": 2, "name": "Islington/Bevan Street", "opening_hours": "24/7", "operator": "Source London"}}, {"type": "Feature", "geometry": {"type": "Point", "coordinates": [-0.08844, 51.539812]}, "properties": {"access": "customers", "amenity": "charging_station", "capacity": 2, "name": "Islington/Almorah Road 1A", "opening_hours": "24/7", "operator": "Source London", "socket:type2": 2, "socket:type1": 2}}, {"type": "Feature", "geometry": {"type": "Point", "coordinates": [-0.086703, 51.54098]}, "properties": {"access": "customers", "amenity": "charging_station", "capacity": 2, "name": "Islington/Almorah Road 56", "opening_hours": "24/7", "operator": "Source London", "socket:type2": 1, "socket:type1": 1}}, {"type": "Feature", "geometry": {"type": "Point", "coordinates": [-0.099554, 51.540262]}, "properties": {"access": "customers", "amenity": "charging_station", "capacity": 2, "name": "Islington/Hawes Street", "opening_hours": "24/7", "operator": "Source London", "socket:type2": 1, "socket:type1": 1}}, {"type": "Feature", "geometry": {"type": "Point", "coordinates": [-0.116395, 51.569642]}, "properties": {"access": "customers", "amenity": "charging_station", "capacity": 2, "name": "Islington/Evershot Road", "opening_hours": "24/7", "operator": "Source London", "socket:type2": 2, "socket:type1": 2}}, {"type": "Feature", "geometry": {"type": "Point", "coordinates": [-0.084662, 51.550442]}, "properties": {"access": "customers", "amenity": "charging_station", "capacity": 2, "name": "Islington/Mildmay Park", "opening_hours": "24/7", "operator": "Source London"}}, {"type": "Feature", "geometry": {"type": "Point", "coordinates": [-0.078877, 51.54944]}, "properties": {"access": "customers", "amenity": "charging_station", "capacity": 2, "name": "Islington/Mildmay Road", "opening_hours": "24/7", "operator": "Source London", "socket:type2": 1, "socket:type1": 1}}, {"type": "Feature", "geometry": {"type": "Point", "coordinates": [-0.178533, 51.445979]}, "properties": {"access": "customers", "amenity": "charging_station", "capacity": 3, "name": "Wandsworth/Ellerton Road", "opening_hours": "24/7", "operator": "Source London", "socket:type2": 3, "socket:type1": 3}}, {"type": "Feature", "geometry": {"type": "Point", "coordinates": [-0.096429, 51.525626]}, "properties": {"access": "customers", "amenity": "charging_station", "capacity": 1, "name": "Islington/Central Street 49", "opening_hours": "24/7", "operator": "Source London"}}, {"type": "Feature", "geometry": {"type": "Point", "coordinates": [-0.091442, 51.527343]}, "properties": {"access": "customers", "amenity": "charging_station", "capacity": 1, "name": "Islington/Bath Street", "opening_hours": "24/7", "operator": "Source London"}}, {"type": "Feature", "geometry": {"type": "Point", "coordinates": [-0.100228, 51.523367]}, "properties": {"access": "customers", "amenity": "charging_station", "capacity": 1, "name": "Islington/Berry Street", "opening_hours": "24/7", "operator": "Source London"}}, {"type": "Feature", "geometry": {"type": "Point", "coordinates": [-0.087969, 51.547933]}, "properties": {"access": "customers", "amenity": "charging_station", "capacity": 2, "name": "Islington/St Paul's Place", "opening_hours": "24/7", "operator": "Source London", "socket:type2": 2, "socket:type1": 2}}, {"type": "Feature", "geometry": {"type": "Point", "coordinates": [-0.087025, 51.549123]}, "properties": {"access": "customers", "amenity": "charging_station", "capacity": 2, "name": "Islington/Mildmay Grove North", "opening_hours": "24/7", "operator": "Source London", "socket:type2": 2, "socket:type1": 2}}, {"type": "Feature", "geometry": {"type": "Point", "coordinates": [-0.090407, 51.526922]}, "properties": {"access": "customers", "amenity": "charging_station", "capacity": 2, "name": "Islington/Peerless Road", "opening_hours": "24/7", "operator": "Source London", "socket:type2": 2, "socket:type1": 2}}, {"type": "Feature", "geometry": {"type": "Point", "coordinates": [-0.101118, 51.529344]}, "properties": {"access": "customers", "amenity": "charging_station", "capacity": 2, "name": "Islington/Hall Street", "opening_hours": "24/7", "operator": "Source London", "socket:type2": 2, "socket:type1": 2}}, {"type": "Feature", "geometry": {"type": "Point", "coordinates": [-0.102087, 51.526167]}, "properties": {"access": "customers", "amenity": "charging_station", "capacity": 2, "name": "Islington/Percival Street", "opening_hours": "24/7", "operator": "Source London", "socket:type2": 2, "socket:type1": 2}}, {"type": "Feature", "geometry": {"type": "Point", "coordinates": [-0.085804, 51.523924]}, "properties": {"access": "customers", "amenity": "charging_station", "capacity": 1, "name": "Islington/Tabernacle Street", "opening_hours": "24/7", "operator": "Source London"}}, {"type": "Feature", "geometry": {"type": "Point", "coordinates": [-0.094619, 51.527206]}, "properties": {"access": "customers", "amenity": "charging_station", "capacity": 2, "name": "Islington/Ironmonger Row", "opening_hours": "24/7", "operator": "Source London", "socket:type2": 2, "socket:type1": 2}}, {"type": "Feature", "geometry": {"type": "Point", "coordinates": [-0.103658, 51.559123]}, "properties": {"access": "customers", "amenity": "charging_station", "capacity": 2, "name": "Islington/St Thomas Road", "opening_hours": "24/7", "operator": "Source London", "socket:type2": 2, "socket:type1": 2}}, {"type": "Feature", "geometry": {"type": "Point", "coordinates": [-0.103344, 51.555566]}, "properties": {"access": "customers", "amenity": "charging_station", "capacity": 2, "name": "Islington/Aubert Park", "opening_hours": "24/7", "operator": "Source London", "socket:type2": 1, "socket:type1": 1}}, {"type": "Feature", "geometry": {"type": "Point", "coordinates": [-0.112744, 51.555349]}, "properties": {"access": "customers", "amenity": "charging_station", "capacity": 2, "name": "Islington/Annette Road", "opening_hours": "24/7", "operator": "Source London", "socket:type2": 1, "socket:type1": 1}}, {"type": "Feature", "geometry": {"type": "Point", "coordinates": [-0.102348, 51.563202]}, "properties": {"access": "customers", "amenity": "charging_station", "capacity": 2, "name": "Islington/Ambler Road", "opening_hours": "24/7", "operator": "Source London", "socket:type2": 2, "socket:type1": 2}}, {"type": "Feature", "geometry": {"type": "Point", "coordinates": [-0.099639, 51.523663]}, "properties": {"access": "customers", "amenity": "charging_station", "capacity": 2, "name": "Islington/Great Sutton Street", "opening_hours": "24/7", "operator": "Source London", "socket:type2": 2, "socket:type1": 2}}, {"type": "Feature", "geometry": {"type": "Point", "coordinates": [0.053285, 51.489773]}, "properties": {"access": "customers", "amenity": "charging_station", "capacity": 3, "name": "Greenwich/Frances Street", "opening_hours": "24/7", "operator": "Source London", "socket:type2": 3, "socket:type1": 3}}, {"type": "Feature", "geometry": {"type": "Point", "coordinates": [-0.015705, 51.478722]}, "properties": {"access": "customers", "amenity": "charging_station", "capacity": 3, "name": "Greenwich/Tarves Way", "opening_hours": "24/7", "operator": "Source London", "socket:type2": 3, "socket:type1": 3}}, {"type": "Feature", "geometry": {"type": "Point", "coordinates": [0.002821, 51.4874]}, "properties": {"access": "customers", "amenity": "charging_station", "capacity": 2, "name": "Greenwich/Banning Street", "opening_hours": "24/7", "operator": "Source London", "socket:type2": 2, "socket:type1": 2}}, {"type": "Feature", "geometry": {"type": "Point", "coordinates": [0.000338, 51.485635]}, "properties": {"access": "customers", "amenity": "charging_station", "capacity": 3, "name": "Greenwich/Lassell Street", "opening_hours": "24/7", "operator": "Source London", "socket:type2": 2, "socket:type1": 2}}, {"type": "Feature", "geometry": {"type": "Point", "coordinates": [-0.003088, 51.48304]}, "properties": {"access": "customers", "amenity": "charging_station", "capacity": 2, "name": "Greenwich/Park Row Car Park", "opening_hours": "24/7", "operator": "Source London", "socket:type2": 2, "socket:type1": 2}}, {"type": "Feature", "geometry": {"type": "Point", "coordinates": [-0.089152, 51.526937]}, "properties": {"access": "customers", "amenity": "charging_station", "capacity": 1, "name": "Islington/Baldwin Street", "opening_hours": "24/7", "operator": "Source London"}}, {"type": "Feature", "geometry": {"type": "Point", "coordinates": [-0.117982, 51.568256]}, "properties": {"access": "customers", "amenity": "charging_station", "capacity": 2, "name": "Islington/Corbyn Street", "opening_hours": "24/7", "operator": "Source London", "socket:type2": 2, "socket:type1": 2}}, {"type": "Feature", "geometry": {"type": "Point", "coordinates": [-0.127568, 51.55689]}, "properties": {"access": "customers", "amenity": "charging_station", "capacity": 2, "name": "Islington/St George's Avenue", "opening_hours": "24/7", "operator": "Source London", "socket:type2": 2, "socket:type1": 2}}, {"type": "Feature", "geometry": {"type": "Point", "coordinates": [-0.120081, 51.551294]}, "properties": {"access": "customers", "amenity": "charging_station", "capacity": 2, "name": "Islington/Cardozo Road", "opening_hours": "24/7", "operator": "Source London", "socket:type2": 2, "socket:type1": 2}}, {"type": "Feature", "geometry": {"type": "Point", "coordinates": [-0.124429, 51.555689]}, "properties": {"access": "customers", "amenity": "charging_station", "capacity": 2, "name": "Islington/Cardwell Road", "opening_hours": "24/7", "operator": "Source London", "socket:type2": 2, "socket:type1": 2}}, {"type": "Feature", "geometry": {"type": "Point", "coordinates": [-0.266862, 51.464242]}, "properties": {"access": "customers", "amenity": "charging_station", "capacity": 2, "name": "Richmond Upon Thames/Sheen Lane", "opening_hours": "24/7", "operator": "Source London", "socket:type2": 2, "socket:type1": 2}}, {"type": "Feature", "geometry": {"type": "Point", "coordinates": [-0.236893, 51.464901]}, "properties": {"access": "customers", "amenity": "charging_station", "capacity": 3, "name": "Richmond Upon Thames/Gipsy Lane", "opening_hours": "24/7", "operator": "Source London", "socket:type2": 3, "socket:type1": 3}}, {"type": "Feature", "geometry": {"type": "Point", "coordinates": [-0.295462, 51.451658]}, "properties": {"access": "customers", "amenity": "charging_station", "capacity": 2, "name": "Richmond Upon Thames/Stafford Place", "opening_hours": "24/7", "operator": "Source London", "socket:type2": 2, "socket:type1": 2}}, {"type": "Feature", "geometry": {"type": "Point", "coordinates": [-0.351576, 51.434512]}, "properties": {"access": "customers", "amenity": "charging_station", "capacity": 2, "name": "Richmond Upon Thames/Wellington Road", "opening_hours": "24/7", "operator": "Source London", "socket:type2": 2, "socket:type1": 2}}, {"type": "Feature", "geometry": {"type": "Point", "coordinates": [-0.243049, 51.5366]}, "properties": {"access": "customers", "amenity": "charging_station", "capacity": 1, "name": "Brent/Leghorn Road", "opening_hours": "24/7", "operator": "Source London"}}, {"type": "Feature", "geometry": {"type": "Point", "coordinates": [-0.198134, 51.540235]}, "properties": {"access": "customers", "amenity": "charging_station", "capacity": 1, "name": "Brent/St Julian's Road", "opening_hours": "24/7", "operator": "Source London"}}, {"type": "Feature", "geometry": {"type": "Point", "coordinates": [-0.211344, 51.542775]}, "properties": {"access": "customers", "amenity": "charging_station", "capacity": 2, "name": "Brent/Christchurch Avenue", "opening_hours": "24/7", "operator": "Source London", "socket:type2": 2, "socket:type1": 2}}, {"type": "Feature", "geometry": {"type": "Point", "coordinates": [-0.210625, 51.552278]}, "properties": {"access": "customers", "amenity": "charging_station", "capacity": 1, "name": "Brent/Walm Lane", "opening_hours": "24/7", "operator": "Source London"}}, {"type": "Feature", "geometry": {"type": "Point", "coordinates": [-0.222075, 51.548666]}, "properties": {"access": "customers", "amenity": "charging_station", "capacity": 1, "name": "Brent/St Pauls Avenue", "opening_hours": "24/7", "operator": "Source London"}}, {"type": "Feature", "geometry": {"type": "Point", "coordinates": [-0.307926, 51.571454]}, "properties": {"access": "customers", "amenity": "charging_station", "capacity": 2, "name": "Brent/Windermere Avenue", "opening_hours": "24/7", "operator": "Source London", "socket:type2": 2, "socket:type1": 2}}, {"type": "Feature", "geometry": {"type": "Point", "coordinates": [-0.266642, 51.599483]}, "properties": {"access": "customers", "amenity": "charging_station", "capacity": 1, "name": "Brent/Limesdale Gardens", "opening_hours": "24/7", "operator": "Source London"}}, {"type": "Feature", "geometry": {"type": "Point", "coordinates": [-0.313531, 51.583756]}, "properties": {"access": "customers", "amenity": "charging_station", "capacity": 2, "name": "Brent/Upton Gardens", "opening_hours": "24/7", "operator": "Source London", "socket:type2": 2, "socket:type1": 2}}, {"type": "Feature", "geometry": {"type": "Point", "coordinates": [-0.219353, 51.559632]}, "properties": {"access": "customers", "amenity": "charging_station", "capacity": 2, "name": "Brent/Mora Road", "opening_hours": "24/7", "operator": "Source London", "socket:type2": 2, "socket:type1": 2}}, {"type": "Feature", "geometry": {"type": "Point", "coordinates": [-0.261677, 51.57371]}, "properties": {"access": "customers", "amenity": "charging_station", "capacity": 2, "name": "Brent/Wood Lane", "opening_hours": "24/7", "operator": "Source London", "socket:type2": 2, "socket:type1": 2}}, {"type": "Feature", "geometry": {"type": "Point", "coordinates": [-0.297087, 51.546389]}, "properties": {"access": "customers", "amenity": "charging_station", "capacity": 1, "name": "Brent/Douglas Avenue", "opening_hours": "24/7", "operator": "Source London"}}, {"type": "Feature", "geometry": {"type": "Point", "coordinates": [-0.228463, 51.541254]}, "properties": {"access": "customers", "amenity": "charging_station", "capacity": 2, "name": "Brent/Donnington Road", "opening_hours": "24/7", "operator": "Source London", "socket:type2": 2, "socket:type1": 2}}, {"type": "Feature", "geometry": {"type": "Point", "coordinates": [-0.273919, 51.546167]}, "properties": {"access": "customers", "amenity": "charging_station", "capacity": 2, "name": "Brent/Monks Park", "opening_hours": "24/7", "operator": "Source London", "socket:type2": 2, "socket:type1": 2}}, {"type": "Feature", "geometry": {"type": "Point", "coordinates": [-0.317284, 51.556797]}, "properties": {"access": "customers", "amenity": "charging_station", "capacity": 1, "name": "Brent/Watford Road", "opening_hours": "24/7", "operator": "Source London"}}, {"type": "Feature", "geometry": {"type": "Point", "coordinates": [-0.284425, 51.594277]}, "properties": {"access": "customers", "amenity": "charging_station", "capacity": 2, "name": "Brent/Queensbury Station Parade", "opening_hours": "24/7", "operator": "Source London", "socket:type2": 2, "socket:type1": 2}}, {"type": "Feature", "geometry": {"type": "Point", "coordinates": [-0.239878, 51.551138]}, "properties": {"access": "customers", "amenity": "charging_station", "capacity": 1, "name": "Brent/Chapter Road", "opening_hours": "24/7", "operator": "Source London"}}, {"type": "Feature", "geometry": {"type": "Point", "coordinates": [-0.216246, 51.529892]}, "properties": {"access": "customers", "amenity": "charging_station", "capacity": 1, "name": "Brent/Buller Road", "opening_hours": "24/7", "operator": "Source London"}}, {"type": "Feature", "geometry": {"type": "Point", "coordinates": [-0.217726, 51.532981]}, "properties": {"access": "customers", "amenity": "charging_station", "capacity": 1, "name": "Brent/Kempe Road", "opening_hours": "24/7", "operator": "Source London"}}, {"type": "Feature", "geometry": {"type": "Point", "coordinates": [-0.229584, 51.403003]}, "properties": {"access": "customers", "amenity": "charging_station", "capacity": 3, "name": "Merton/Blenheim Road", "opening_hours": "24/7", "operator": "Source London", "socket:type2": 3, "socket:type1": 3}}, {"type": "Feature", "geometry": {"type": "Point", "coordinates": [-0.16176, 51.397076]}, "properties": {"access": "customers", "amenity": "charging_station", "capacity": 3, "name": "Merton/Caesar s Walk", "opening_hours": "24/7", "operator": "Source London", "socket:type2": 3, "socket:type1": 3}}, {"type": "Feature", "geometry": {"type": "Point", "coordinates": [-0.178181, 51.409257]}, "properties": {"access": "customers", "amenity": "charging_station", "capacity": 3, "name": "Merton/Haslemere Avenue", "opening_hours": "24/7", "operator": "Source London", "socket:type2": 3, "socket:type1": 3}}, {"type": "Feature", "geometry": {"type": "Point", "coordinates": [-0.209034, 51.423356]}, "properties": {"access": "customers", "amenity": "charging_station", "capacity": 3, "name": "Merton/Woodside", "opening_hours": "24/7", "operator": "Source London", "socket:type2": 3, "socket:type1": 3}}, {"type": "Feature", "geometry": {"type": "Point", "coordinates": [-0.152704, 51.4067]}, "properties": {"access": "customers", "amenity": "charging_station", "capacity": 2, "name": "Merton/Acacia Road", "opening_hours": "24/7", "operator": "Source London", "socket:type2": 2, "socket:type1": 2}}, {"type": "Feature", "geometry": {"type": "Point", "coordinates": [-0.151913, 51.417397]}, "properties": {"access": "customers", "amenity": "charging_station", "capacity": 2, "name": "Merton/Ashbourne Road", "opening_hours": "24/7", "operator": "Source London", "socket:type2": 2, "socket:type1": 2}}, {"type": "Feature", "geometry": {"type": "Point", "coordinates": [-0.168949, 51.408187]}, "properties": {"access": "customers", "amenity": "charging_station", "capacity": 2, "name": "Merton/Bond Road", "opening_hours": "24/7", "operator": "Source London", "socket:type2": 2, "socket:type1": 2}}, {"type": "Feature", "geometry": {"type": "Point", "coordinates": [-0.164867, 51.403851]}, "properties": {"access": "customers", "amenity": "charging_station", "capacity": 2, "name": "Merton/Elmwood Road", "opening_hours": "24/7", "operator": "Source London", "socket:type2": 2, "socket:type1": 2}}, {"type": "Feature", "geometry": {"type": "Point", "coordinates": [-0.200889, 51.41503]}, "properties": {"access": "customers", "amenity": "charging_station", "capacity": 2, "name": "Merton/Gladstone Road", "opening_hours": "24/7", "operator": "Source London", "socket:type2": 2, "socket:type1": 2}}, {"type": "Feature", "geometry": {"type": "Point", "coordinates": [-0.222962, 51.391716]}, "properties": {"access": "customers", "amenity": "charging_station", "capacity": 2, "name": "Merton/Grand Drive", "opening_hours": "24/7", "operator": "Source London", "socket:type2": 2, "socket:type1": 2}}, {"type": "Feature", "geometry": {"type": "Point", "coordinates": [-0.203635, 51.438893]}, "properties": {"access": "customers", "amenity": "charging_station", "capacity": 2, "name": "Merton/Melrose Avenue", "opening_hours": "24/7", "operator": "Source London", "socket:type2": 2, "socket:type1": 2}}, {"type": "Feature", "geometry": {"type": "Point", "coordinates": [-0.141853, 51.410107]}, "properties": {"access": "customers", "amenity": "charging_station", "capacity": 2, "name": "Merton/Rowan Crescent", "opening_hours": "24/7", "operator": "Source London", "socket:type2": 2, "socket:type1": 2}}, {"type": "Feature", "geometry": {"type": "Point", "coordinates": [-0.197731, 51.389649]}, "properties": {"access": "customers", "amenity": "charging_station", "capacity": 3, "name": "Merton/Yenston Close", "opening_hours": "24/7", "operator": "Source London", "socket:type2": 3, "socket:type1": 3}}, {"type": "Feature", "geometry": {"type": "Point", "coordinates": [-0.194084, 51.415483]}, "properties": {"access": "customers", "amenity": "charging_station", "capacity": 2, "name": "Merton/Kingston Road 24", "opening_hours": "24/7", "operator": "Source London", "socket:type2": 2, "socket:type1": 2}}, {"type": "Feature", "geometry": {"type": "Point", "coordinates": [-0.010111, 51.479859]}, "properties": {"access": "customers", "amenity": "charging_station", "capacity": 3, "name": "Greenwich/Straightsmouth", "opening_hours": "24/7", "operator": "Source London", "socket:type2": 2, "socket:type1": 2}}, {"type": "Feature", "geometry": {"type": "Point", "coordinates": [-0.154098, 51.415642]}, "properties": {"access": "customers", "amenity": "charging_station", "capacity": 3, "name": "Merton/St Barnabas Road", "opening_hours": "24/7", "operator": "Source London", "socket:type2": 3, "socket:type1": 3}}, {"type": "Feature", "geometry": {"type": "Point", "coordinates": [-0.233788, 51.418507]}, "properties": {"access": "customers", "amenity": "charging_station", "capacity": 3, "name": "Merton/Ernle Road", "opening_hours": "24/7", "operator": "Source London", "socket:type2": 3, "socket:type1": 3}}, {"type": "Feature", "geometry": {"type": "Point", "coordinates": [-0.150647, 51.417755]}, "properties": {"access": "customers", "amenity": "charging_station", "capacity": 3, "name": "Merton/Streatham Road 227", "opening_hours": "24/7", "operator": "Source London", "socket:type2": 3, "socket:type1": 3}}, {"type": "Feature", "geometry": {"type": "Point", "coordinates": [-0.101636, 51.588622]}, "properties": {"access": "customers", "amenity": "charging_station", "capacity": 3, "name": "Haringey/West Green Road 526", "opening_hours": "24/7", "operator": "Source London", "socket:type2": 3, "socket:type1": 3}}, {"type": "Feature", "geometry": {"type": "Point", "coordinates": [-0.097154, 51.589808]}, "properties": {"access": "customers", "amenity": "charging_station", "capacity": 2, "name": "Haringey/Waldeck Road 75", "opening_hours": "24/7", "operator": "Source London", "socket:type2": 2, "socket:type1": 2}}, {"type": "Feature", "geometry": {"type": "Point", "coordinates": [-0.06575, 51.598764]}, "properties": {"access": "customers", "amenity": "charging_station", "capacity": 3, "name": "Haringey/Lansdowne Road", "opening_hours": "24/7", "operator": "Source London", "socket:type2": 2, "socket:type1": 2}}, {"type": "Feature", "geometry": {"type": "Point", "coordinates": [-0.069747, 51.584181]}, "properties": {"access": "customers", "amenity": "charging_station", "capacity": 3, "name": "Haringey/Talbot Road 2", "opening_hours": "24/7", "operator": "Source London", "socket:type2": 3, "socket:type1": 3}}, {"type": "Feature", "geometry": {"type": "Point", "coordinates": [-0.073569, 51.58392]}, "properties": {"access": "customers", "amenity": "charging_station", "capacity": 2, "name": "Haringey/Suffield Road", "opening_hours": "24/7", "operator": "Source London", "socket:type2": 2, "socket:type1": 2}}, {"type": "Feature", "geometry": {"type": "Point", "coordinates": [-0.079707, 51.587599]}, "properties": {"access": "customers", "amenity": "charging_station", "capacity": 3, "name": "Haringey/Lawrence Road", "opening_hours": "24/7", "operator": "Source London", "socket:type2": 3, "socket:type1": 3}}, {"type": "Feature", "geometry": {"type": "Point", "coordinates": [-0.144013, 51.589857]}, "properties": {"access": "customers", "amenity": "charging_station", "capacity": 3, "name": "Haringey/Hillfield Park", "opening_hours": "24/7", "operator": "Source London", "socket:type2": 3, "socket:type1": 3}}, {"type": "Feature", "geometry": {"type": "Point", "coordinates": [-0.137169, 51.577519]}, "properties": {"access": "customers", "amenity": "charging_station", "capacity": 3, "name": "Haringey/Stanhope Road", "opening_hours": "24/7", "operator": "Source London", "socket:type2": 3, "socket:type1": 3}}, {"type": "Feature", "geometry": {"type": "Point", "coordinates": [-0.120237, 51.598588]}, "properties": {"access": "customers", "amenity": "charging_station", "capacity": 3, "name": "Haringey/Buckingham Road", "opening_hours": "24/7", "operator": "Source London", "socket:type2": 3, "socket:type1": 3}}, {"type": "Feature", "geometry": {"type": "Point", "coordinates": [-0.098595, 51.578806]}, "properties": {"access": "customers", "amenity": "charging_station", "capacity": 2, "name": "Haringey/Rutland Gardens", "opening_hours": "24/7", "operator": "Source London", "socket:type2": 2, "socket:type1": 2}}, {"type": "Feature", "geometry": {"type": "Point", "coordinates": [-0.131832, 51.587299]}, "properties": {"access": "customers", "amenity": "charging_station", "capacity": 3, "name": "Haringey/Priory Road 157", "opening_hours": "24/7", "operator": "Source London", "socket:type2": 3, "socket:type1": 3}}, {"type": "Feature", "geometry": {"type": "Point", "coordinates": [-0.108546, 51.590127]}, "properties": {"access": "customers", "amenity": "charging_station", "capacity": 3, "name": "Haringey/The Avenue", "opening_hours": "24/7", "operator": "Source London", "socket:type2": 3, "socket:type1": 3}}, {"type": "Feature", "geometry": {"type": "Point", "coordinates": [-0.094037, 51.598399]}, "properties": {"access": "customers", "amenity": "charging_station", "capacity": 3, "name": "Haringey/Tintern Road", "opening_hours": "24/7", "operator": "Source London", "socket:type2": 3, "socket:type1": 3}}, {"type": "Feature", "geometry": {"type": "Point", "coordinates": [-0.206198, 51.394401]}, "properties": {"access": "customers", "amenity": "charging_station", "capacity": 5, "name": "Merton/South Morden Leisure Centre", "opening_hours": "24/7", "operator": "Source London", "socket:type2": 5, "socket:type1": 5}}, {"type": "Feature", "geometry": {"type": "Point", "coordinates": [-0.104138, 51.591279]}, "properties": {"access": "customers", "amenity": "charging_station", "capacity": 1, "name": "Haringey/High Road Wood Green 20", "opening_hours": "24/7", "operator": "Source London"}}, {"type": "Feature", "geometry": {"type": "Point", "coordinates": [-0.185549, 51.486797]}, "properties": {"access": "customers", "amenity": "charging_station", "capacity": 2, "name": "Kensington and Chelsea/Hollywood Road", "opening_hours": "24/7", "operator": "Source London", "socket:type2": 1, "socket:type1": 1}}, {"type": "Feature", "geometry": {"type": "Point", "coordinates": [-0.179862, 51.48384]}, "properties": {"access": "customers", "amenity": "charging_station", "capacity": 2, "name": "Kensington and Chelsea/Gertrude Street", "opening_hours": "24/7", "operator": "Source London"}}, {"type": "Feature", "geometry": {"type": "Point", "coordinates": [-0.163377, 51.491937]}, "properties": {"access": "customers", "amenity": "charging_station", "capacity": 2, "name": "Kensington and Chelsea/Draycott Avenue", "opening_hours": "24/7", "operator": "Source London"}}, {"type": "Feature", "geometry": {"type": "Point", "coordinates": [-0.170499, 51.489989]}, "properties": {"access": "customers", "amenity": "charging_station", "capacity": 2, "name": "Kensington and Chelsea/Sydney Street", "opening_hours": "24/7", "operator": "Source London", "socket:type2": 1, "socket:type1": 1}}, {"type": "Feature", "geometry": {"type": "Point", "coordinates": [-0.192491, 51.495923]}, "properties": {"access": "customers", "amenity": "charging_station", "capacity": 2, "name": "Kensington and Chelsea/Lexham Gardens", "opening_hours": "24/7", "operator": "Source London", "socket:type2": 1, "socket:type1": 1}}, {"type": "Feature", "geometry": {"type": "Point", "coordinates": [-0.183899, 51.492077]}, "properties": {"access": "customers", "amenity": "charging_station", "capacity": 2, "name": "Kensington and Chelsea/Bina Gardens", "opening_hours": "24/7", "operator": "Source London"}}, {"type": "Feature", "geometry": {"type": "Point", "coordinates": [-0.199996, 51.512756]}, "properties": {"access": "customers", "amenity": "charging_station", "capacity": 2, "name": "Kensington and Chelsea/Pembridge Crescent", "opening_hours": "24/7", "operator": "Source London", "socket:type2": 1, "socket:type1": 1}}, {"type": "Feature", "geometry": {"type": "Point", "coordinates": [-0.194683, 51.502432]}, "properties": {"access": "customers", "amenity": "charging_station", "capacity": 2, "name": "Kensington and Chelsea/Hornton Street", "opening_hours": "24/7", "operator": "Source London", "socket:type2": 1, "socket:type1": 1}}, {"type": "Feature", "geometry": {"type": "Point", "coordinates": [-0.206435, 51.500004]}, "properties": {"access": "customers", "amenity": "charging_station", "capacity": 2, "name": "Kensington and Chelsea/Oakwood Court", "opening_hours": "24/7", "operator": "Source London", "socket:type2": 1, "socket:type1": 1}}, {"type": "Feature", "geometry": {"type": "Point", "coordinates": [-0.290858, 51.462004]}, "properties": {"access": "customers", "amenity": "charging_station", "capacity": 3, "name": "Richmond Upon Thames/Sheen Road 173", "opening_hours": "24/7", "operator": "Source London", "socket:type2": 3, "socket:type1": 3}}, {"type": "Feature", "geometry": {"type": "Point", "coordinates": [-0.235263, 51.485856]}, "properties": {"access": "customers", "amenity": "charging_station", "capacity": 3, "name": "Richmond Upon Thames/Boileau Road", "opening_hours": "24/7", "operator": "Source London", "socket:type2": 3, "socket:type1": 3}}, {"type": "Feature", "geometry": {"type": "Point", "coordinates": [-0.246132, 51.473996]}, "properties": {"access": "customers", "amenity": "charging_station", "capacity": 2, "name": "Richmond Upon Thames/Nassau Road", "opening_hours": "24/7", "operator": "Source London", "socket:type2": 2, "socket:type1": 2}}, {"type": "Feature", "geometry": {"type": "Point", "coordinates": [-0.246572, 51.479785]}, "properties": {"access": "customers", "amenity": "charging_station", "capacity": 3, "name": "Richmond Upon Thames/Suffolk Road", "opening_hours": "24/7", "operator": "Source London", "socket:type2": 3, "socket:type1": 3}}, {"type": "Feature", "geometry": {"type": "Point", "coordinates": [-0.291484, 51.466069]}, "properties": {"access": "customers", "amenity": "charging_station", "capacity": 3, "name": "Richmond Upon Thames/Victoria Villas", "opening_hours": "24/7", "operator": "Source London", "socket:type2": 3, "socket:type1": 3}}, {"type": "Feature", "geometry": {"type": "Point", "coordinates": [-0.291509, 51.470404]}, "properties": {"access": "customers", "amenity": "charging_station", "capacity": 2, "name": "Richmond Upon Thames/Lion Gate Gardens", "opening_hours": "24/7", "operator": "Source London", "socket:type2": 2, "socket:type1": 2}}, {"type": "Feature", "geometry": {"type": "Point", "coordinates": [-0.285578, 51.472691]}, "properties": {"access": "customers", "amenity": "charging_station", "capacity": 3, "name": "Richmond Upon Thames/Atwood Avenue", "opening_hours": "24/7", "operator": "Source London", "socket:type2": 3, "socket:type1": 3}}, {"type": "Feature", "geometry": {"type": "Point", "coordinates": [-0.285265, 51.475645]}, "properties": {"access": "customers", "amenity": "charging_station", "capacity": 3, "name": "Richmond Upon Thames/North Road 96", "opening_hours": "24/7", "operator": "Source London", "socket:type2": 3, "socket:type1": 3}}, {"type": "Feature", "geometry": {"type": "Point", "coordinates": [-0.059034, 51.511056]}, "properties": {"access": "customers", "amenity": "charging_station", "capacity": 1, "name": "Tower Hamlets/Cable Street 228", "opening_hours": "24/7", "operator": "Source London"}}, {"type": "Feature", "geometry": {"type": "Point", "coordinates": [-0.047477, 51.515415]}, "properties": {"access": "customers", "amenity": "charging_station", "capacity": 2, "name": "Tower Hamlets/East Arbour Street", "opening_hours": "24/7", "operator": "Source London", "socket:type2": 2, "socket:type1": 2}}, {"type": "Feature", "geometry": {"type": "Point", "coordinates": [-0.054573, 51.520362]}, "properties": {"access": "customers", "amenity": "charging_station", "capacity": 3, "name": "Tower Hamlets/Mile End Road", "opening_hours": "24/7", "operator": "Source London", "socket:type2": 2, "socket:type1": 2}}, {"type": "Feature", "geometry": {"type": "Point", "coordinates": [-0.018876, 51.498604]}, "properties": {"access": "customers", "amenity": "charging_station", "capacity": 4, "name": "Tower Hamlets/Millharbour Road", "opening_hours": "24/7", "operator": "Source London", "socket:type2": 4, "socket:type1": 4}}, {"type": "Feature", "geometry": {"type": "Point", "coordinates": [-0.055926, 51.530573]}, "properties": {"access": "customers", "amenity": "charging_station", "capacity": 3, "name": "Tower Hamlets/Patriot Square", "opening_hours": "24/7", "operator": "Source London", "socket:type2": 2, "socket:type1": 2}}, {"type": "Feature", "geometry": {"type": "Point", "coordinates": [-0.073043, 51.515793]}, "properties": {"access": "customers", "amenity": "charging_station", "capacity": 2, "name": "Tower Hamlets/Pomell Way", "opening_hours": "24/7", "operator": "Source London", "socket:type2": 2, "socket:type1": 2}}, {"type": "Feature", "geometry": {"type": "Point", "coordinates": [-0.02769, 51.539714]}, "properties": {"access": "customers", "amenity": "charging_station", "capacity": 3, "name": "Tower Hamlets/St Marks Gate", "opening_hours": "24/7", "operator": "Source London", "socket:type2": 3, "socket:type1": 3}}, {"type": "Feature", "geometry": {"type": "Point", "coordinates": [-0.060802, 51.516589]}, "properties": {"access": "customers", "amenity": "charging_station", "capacity": 2, "name": "Tower Hamlets/Turner Street", "opening_hours": "24/7", "operator": "Source London", "socket:type2": 2, "socket:type1": 2}}, {"type": "Feature", "geometry": {"type": "Point", "coordinates": [-0.066746, 51.504529]}, "properties": {"access": "customers", "amenity": "charging_station", "capacity": 2, "name": "Tower Hamlets/Wapping High Street", "opening_hours": "24/7", "operator": "Source London", "socket:type2": 2, "socket:type1": 2}}, {"type": "Feature", "geometry": {"type": "Point", "coordinates": [-0.340896, 51.444585]}, "properties": {"access": "customers", "amenity": "charging_station", "capacity": 2, "name": "Richmond Upon Thames/The Green", "opening_hours": "24/7", "operator": "Source London", "socket:type2": 2, "socket:type1": 2}}, {"type": "Feature", "geometry": {"type": "Point", "coordinates": [-0.252989, 51.47167]}, "properties": {"access": "customers", "amenity": "charging_station", "capacity": 3, "name": "Richmond Upon Thames/Elm Bank Gardens", "opening_hours": "24/7", "operator": "Source London", "socket:type2": 3, "socket:type1": 3}}, {"type": "Feature", "geometry": {"type": "Point", "coordinates": [-0.006981, 51.545409]}, "properties": {"access": "customers", "amenity": "charging_station", "capacity": 5, "name": "Newham/Stratford International Car Park level 3 FP1", "opening_hours": "24/7", "operator": "Source London", "socket:type2": 5, "socket:type1": 5}}, {"type": "Feature", "geometry": {"type": "Point", "coordinates": [-0.006369, 51.545355]}, "properties": {"access": "customers", "amenity": "charging_station", "capacity": 5, "name": "Newham/Stratford International Car Park level 3 FP4", "opening_hours": "24/7", "operator": "Source London", "socket:type2": 5, "socket:type1": 5}}, {"type": "Feature", "geometry": {"type": "Point", "coordinates": [-0.006809, 51.545409]}, "properties": {"access": "customers", "amenity": "charging_station", "capacity": 5, "name": "Newham/Stratford International Car Park level 3 FP2", "opening_hours": "24/7", "operator": "Source London", "socket:type2": 5, "socket:type1": 5}}, {"type": "Feature", "geometry": {"type": "Point", "coordinates": [-0.006165, 51.545355]}, "properties": {"access": "customers", "amenity": "charging_station", "capacity": 5, "name": "Newham/Stratford International Car Park level 3 FP5", "opening_hours": "24/7", "operator": "Source London", "socket:type2": 5, "socket:type1": 5}}, {"type": "Feature", "geometry": {"type": "Point", "coordinates": [-0.006616, 51.545382]}, "properties": {"access": "customers", "amenity": "charging_station", "capacity": 5, "name": "Newham/Stratford International Car Park level 3 FP3", "opening_hours": "24/7", "operator": "Source London", "socket:type2": 5, "socket:type1": 5}}, {"type": "Feature", "geometry": {"type": "Point", "coordinates": [-0.005929, 51.545375]}, "properties": {"access": "customers", "amenity": "charging_station", "capacity": 1, "name": "Newham/Stratford International Car Park level 3 FP22K", "opening_hours": "24/7", "operator": "Source London"}}, {"type": "Feature", "geometry": {"type": "Point", "coordinates": [-0.011874, 51.375339]}, "properties": {"access": "customers", "amenity": "charging_station", "capacity": 3, "name": "Bromley/Glebe Way", "opening_hours": "24/7", "operator": "Source London", "socket:type2": 3, "socket:type1": 3}}, {"type": "Feature", "geometry": {"type": "Point", "coordinates": [-0.051004, 51.41043]}, "properties": {"access": "customers", "amenity": "charging_station", "capacity": 3, "name": "Bromley/Clevedon Road", "opening_hours": "24/7", "operator": "Source London", "socket:type2": 3, "socket:type1": 3}}, {"type": "Feature", "geometry": {"type": "Point", "coordinates": [-0.098256, 51.370208]}, "properties": {"access": "customers", "amenity": "charging_station", "capacity": 2, "name": "Croydon/Edridge Road", "opening_hours": "24/7", "operator": "Source London", "socket:type2": 2, "socket:type1": 2}}, {"type": "Feature", "geometry": {"type": "Point", "coordinates": [-0.247112, 51.472473]}, "properties": {"access": "customers", "amenity": "charging_station", "capacity": 3, "name": "Richmond Upon Thames/Station Road", "opening_hours": "24/7", "operator": "Source London", "socket:type2": 3, "socket:type1": 3}}, {"type": "Feature", "geometry": {"type": "Point", "coordinates": [-0.09731, 51.379519]}, "properties": {"access": "customers", "amenity": "charging_station", "capacity": 4, "name": "Croydon/Tavistock Road", "opening_hours": "24/7", "operator": "Source London", "socket:type2": 4, "socket:type1": 4}}, {"type": "Feature", "geometry": {"type": "Point", "coordinates": [-0.090381, 51.376456]}, "properties": {"access": "customers", "amenity": "charging_station", "capacity": 1, "name": "Croydon/Colson Road", "opening_hours": "24/7", "operator": "Source London"}}, {"type": "Feature", "geometry": {"type": "Point", "coordinates": [-0.230923, 51.416]}, "properties": {"access": "customers", "amenity": "charging_station", "capacity": 3, "name": "Merton/Pepys Road", "opening_hours": "24/7", "operator": "Source London", "socket:type2": 3, "socket:type1": 3}}, {"type": "Feature", "geometry": {"type": "Point", "coordinates": [-0.234674, 51.418286]}, "properties": {"access": "customers", "amenity": "charging_station", "capacity": 3, "name": "Merton/Copse Hill (Site 2)", "opening_hours": "24/7", "operator": "Source London", "socket:type2": 3, "socket:type1": 3}}, {"type": "Feature", "geometry": {"type": "Point", "coordinates": [-0.221544, 51.43753]}, "properties": {"access": "customers", "amenity": "charging_station", "capacity": 3, "name": "Merton/Castle Way", "opening_hours": "24/7", "operator": "Source London", "socket:type2": 3, "socket:type1": 3}}, {"type": "Feature", "geometry": {"type": "Point", "coordinates": [-0.198096, 51.440051]}, "properties": {"access": "customers", "amenity": "charging_station", "capacity": 2, "name": "Merton/Revelstoke Road", "opening_hours": "24/7", "operator": "Source London", "socket:type2": 1, "socket:type1": 1}}, {"type": "Feature", "geometry": {"type": "Point", "coordinates": [-0.220401, 51.425523]}, "properties": {"access": "customers", "amenity": "charging_station", "capacity": 2, "name": "Merton/Wimbledon High Street (Site 2)", "opening_hours": "24/7", "operator": "Source London", "socket:type2": 2, "socket:type1": 2}}, {"type": "Feature", "geometry": {"type": "Point", "coordinates": [-0.219354, 51.380987]}, "properties": {"access": "customers", "amenity": "charging_station", "capacity": 3, "name": "Merton/Garth Road", "opening_hours": "24/7", "operator": "Source London", "socket:type2": 3, "socket:type1": 3}}, {"type": "Feature", "geometry": {"type": "Point", "coordinates": [-0.244828, 51.416784]}, "properties": {"access": "customers", "amenity": "charging_station", "capacity": 2, "name": "Merton/Copse Hill (Site 1)", "opening_hours": "24/7", "operator": "Source London", "socket:type2": 2, "socket:type1": 2}}, {"type": "Feature", "geometry": {"type": "Point", "coordinates": [-0.220303, 51.385057]}, "properties": {"access": "customers", "amenity": "charging_station", "capacity": 2, "name": "Merton/Cleveland Rise", "opening_hours": "24/7", "operator": "Source London", "socket:type2": 2, "socket:type1": 2}}, {"type": "Feature", "geometry": {"type": "Point", "coordinates": [-0.135621, 51.402841]}, "properties": {"access": "customers", "amenity": "charging_station", "capacity": 3, "name": "Merton/Wide Way", "opening_hours": "24/7", "operator": "Source London", "socket:type2": 3, "socket:type1": 3}}, {"type": "Feature", "geometry": {"type": "Point", "coordinates": [-0.133452, 51.399245]}, "properties": {"access": "customers", "amenity": "charging_station", "capacity": 3, "name": "Merton/Chestnut Grove", "opening_hours": "24/7", "operator": "Source London", "socket:type2": 3, "socket:type1": 3}}, {"type": "Feature", "geometry": {"type": "Point", "coordinates": [-0.130881, 51.538365]}, "properties": {"access": "customers", "amenity": "charging_station", "capacity": 1, "name": "Camden/Camley Street", "opening_hours": "24/7", "operator": "Source London"}}, {"type": "Feature", "geometry": {"type": "Point", "coordinates": [-0.200133, 51.392906]}, "properties": {"access": "customers", "amenity": "charging_station", "capacity": 2, "name": "Merton/Central Road", "opening_hours": "24/7", "operator": "Source London", "socket:type2": 2, "socket:type1": 2}}, {"type": "Feature", "geometry": {"type": "Point", "coordinates": [-0.172855, 51.544187]}, "properties": {"access": "customers", "amenity": "charging_station", "capacity": 1, "name": "Camden/Eton Avenue", "opening_hours": "24/7", "operator": "Source London"}}, {"type": "Feature", "geometry": {"type": "Point", "coordinates": [-0.143822, 51.545989]}, "properties": {"access": "customers", "amenity": "charging_station", "capacity": 1, "name": "Camden/Kelly Street", "opening_hours": "24/7", "operator": "Source London"}}, {"type": "Feature", "geometry": {"type": "Point", "coordinates": [-0.1651, 51.546243]}, "properties": {"access": "customers", "amenity": "charging_station", "capacity": 1, "name": "Camden/Lambolle Place", "opening_hours": "24/7", "operator": "Source London"}}, {"type": "Feature", "geometry": {"type": "Point", "coordinates": [-0.174111, 51.547381]}, "properties": {"access": "customers", "amenity": "charging_station", "capacity": 1, "name": "Camden/Daleham Gardens", "opening_hours": "24/7", "operator": "Source London"}}, {"type": "Feature", "geometry": {"type": "Point", "coordinates": [-0.160765, 51.546786]}, "properties": {"access": "customers", "amenity": "charging_station", "capacity": 1, "name": "Camden/Englands Lane", "opening_hours": "24/7", "operator": "Source London"}}, {"type": "Feature", "geometry": {"type": "Point", "coordinates": [-0.167257, 51.551771]}, "properties": {"access": "customers", "amenity": "charging_station", "capacity": 1, "name": "Camden/Ornan Road", "opening_hours": "24/7", "operator": "Source London"}}, {"type": "Feature", "geometry": {"type": "Point", "coordinates": [-0.175719, 51.546489]}, "properties": {"access": "customers", "amenity": "charging_station", "capacity": 1, "name": "Camden/Fitzjohns Avenue", "opening_hours": "24/7", "operator": "Source London"}}, {"type": "Feature", "geometry": {"type": "Point", "coordinates": [-0.169397, 51.545896]}, "properties": {"access": "customers", "amenity": "charging_station", "capacity": 1, "name": "Camden/Lancaster Grove", "opening_hours": "24/7", "operator": "Source London"}}, {"type": "Feature", "geometry": {"type": "Point", "coordinates": [-0.182906, 51.552158]}, "properties": {"access": "customers", "amenity": "charging_station", "capacity": 1, "name": "Camden/Lindfields Gardens", "opening_hours": "24/7", "operator": "Source London"}}, {"type": "Feature", "geometry": {"type": "Point", "coordinates": [-0.177691, 51.551654]}, "properties": {"access": "customers", "amenity": "charging_station", "capacity": 1, "name": "Camden/Maresfield Gardens", "opening_hours": "24/7", "operator": "Source London"}}, {"type": "Feature", "geometry": {"type": "Point", "coordinates": [-0.216314, 51.483501]}, "properties": {"access": "customers", "amenity": "charging_station", "capacity": 2, "name": "Hammersmith and Fulham/Everington street", "opening_hours": "24/7", "operator": "Source London", "socket:type2": 2, "socket:type1": 2}}, {"type": "Feature", "geometry": {"type": "Point", "coordinates": [-0.222777, 51.502114]}, "properties": {"access": "customers", "amenity": "charging_station", "capacity": 2, "name": "Hammersmith and Fulham/Sulgrave Road", "opening_hours": "24/7", "operator": "Source London", "socket:type2": 2, "socket:type1": 2}}, {"type": "Feature", "geometry": {"type": "Point", "coordinates": [-0.179146, 51.549159]}, "properties": {"access": "customers", "amenity": "charging_station", "capacity": 1, "name": "Camden/Netherhall Gardens", "opening_hours": "24/7", "operator": "Source London"}}, {"type": "Feature", "geometry": {"type": "Point", "coordinates": [-0.137124, 51.553913]}, "properties": {"access": "customers", "amenity": "charging_station", "capacity": 1, "name": "Camden/Ospringe Road", "opening_hours": "24/7", "operator": "Source London"}}, {"type": "Feature", "geometry": {"type": "Point", "coordinates": [-0.186242, 51.56077]}, "properties": {"access": "customers", "amenity": "charging_station", "capacity": 1, "name": "Camden/Templewood Avenue", "opening_hours": "24/7", "operator": "Source London"}}, {"type": "Feature", "geometry": {"type": "Point", "coordinates": [-0.141723, 51.561773]}, "properties": {"access": "customers", "amenity": "charging_station", "capacity": 1, "name": "Camden/Dartmouth Park Avenue", "opening_hours": "24/7", "operator": "Source London"}}, {"type": "Feature", "geometry": {"type": "Point", "coordinates": [-0.119504, 51.529595]}, "properties": {"access": "customers", "amenity": "charging_station", "capacity": 1, "name": "Camden/Brittania Street", "opening_hours": "24/7", "operator": "Source London"}}, {"type": "Feature", "geometry": {"type": "Point", "coordinates": [-0.145934, 51.549044]}, "properties": {"access": "customers", "amenity": "charging_station", "capacity": 1, "name": "Camden/Holmes Road", "opening_hours": "24/7", "operator": "Source London"}}, {"type": "Feature", "geometry": {"type": "Point", "coordinates": [-0.200161, 51.551345]}, "properties": {"access": "customers", "amenity": "charging_station", "capacity": 1, "name": "Camden/Mill Lane (Site 2)", "opening_hours": "24/7", "operator": "Source London"}}, {"type": "Feature", "geometry": {"type": "Point", "coordinates": [-0.211289, 51.51292]}, "properties": {"access": "customers", "amenity": "charging_station", "capacity": 2, "name": "Kensington and Chelsea/Clarendon Road", "opening_hours": "24/7", "operator": "Source London", "socket:type2": 1, "socket:type1": 1}}, {"type": "Feature", "geometry": {"type": "Point", "coordinates": [-0.209805, 51.52099]}, "properties": {"access": "customers", "amenity": "charging_station", "capacity": 2, "name": "Kensington and Chelsea/Chesterton Road", "opening_hours": "24/7", "operator": "Source London", "socket:type2": 1, "socket:type1": 1}}, {"type": "Feature", "geometry": {"type": "Point", "coordinates": [-0.222238, 51.51635]}, "properties": {"access": "customers", "amenity": "charging_station", "capacity": 2, "name": "Kensington and Chelsea/Oxford Gardens", "opening_hours": "24/7", "operator": "Source London", "socket:type2": 1, "socket:type1": 1}}, {"type": "Feature", "geometry": {"type": "Point", "coordinates": [-0.099799, 51.528819]}, "properties": {"access": "customers", "amenity": "charging_station", "capacity": 1, "name": "Islington/Moreland Street", "opening_hours": "24/7", "operator": "Source London"}}, {"type": "Feature", "geometry": {"type": "Point", "coordinates": [-0.080681, 51.521888]}, "properties": {"access": "customers", "amenity": "charging_station", "capacity": 1, "name": "Hackney/Worship Street Site 111", "opening_hours": "24/7", "operator": "Source London"}}, {"type": "Feature", "geometry": {"type": "Point", "coordinates": [-0.335491, 51.472115]}, "properties": {"access": "customers", "amenity": "charging_station", "capacity": 3, "name": "Hounslow/St Johns Road", "opening_hours": "24/7", "operator": "Source London", "socket:type2": 3, "socket:type1": 3}}, {"type": "Feature", "geometry": {"type": "Point", "coordinates": [-0.267133, 51.466602]}, "properties": {"access": "customers", "amenity": "charging_station", "capacity": 3, "name": "Richmond Upon Thames/St Leonards Road", "opening_hours": "24/7", "operator": "Source London", "socket:type2": 2, "socket:type1": 2}}, {"type": "Feature", "geometry": {"type": "Point", "coordinates": [-0.314964, 51.500553]}, "properties": {"access": "customers", "amenity": "charging_station", "capacity": 3, "name": "Ealing/Devonshire Road", "opening_hours": "24/7", "operator": "Source London", "socket:type2": 3, "socket:type1": 3}}, {"type": "Feature", "geometry": {"type": "Point", "coordinates": [-0.125116, 51.523192]}, "properties": {"access": "customers", "amenity": "charging_station", "capacity": 1, "name": "Camden/Herbrand Street", "opening_hours": "24/7", "operator": "Source London"}}, {"type": "Feature", "geometry": {"type": "Point", "coordinates": [-0.325761, 51.498756]}, "properties": {"access": "customers", "amenity": "charging_station", "capacity": 3, "name": "Ealing/Clitherow Avenue", "opening_hours": "24/7", "operator": "Source London", "socket:type2": 3, "socket:type1": 3}}, {"type": "Feature", "geometry": {"type": "Point", "coordinates": [-0.326565, 51.496079]}, "properties": {"access": "customers", "amenity": "charging_station", "capacity": 3, "name": "Ealing/Boston Vale", "opening_hours": "24/7", "operator": "Source London", "socket:type2": 3, "socket:type1": 3}}, {"type": "Feature", "geometry": {"type": "Point", "coordinates": [-0.330974, 51.514603]}, "properties": {"access": "customers", "amenity": "charging_station", "capacity": 3, "name": "Ealing/Park Road W7 1LY", "opening_hours": "24/7", "operator": "Source London", "socket:type2": 3, "socket:type1": 3}}, {"type": "Feature", "geometry": {"type": "Point", "coordinates": [-0.305113, 51.505446]}, "properties": {"access": "customers", "amenity": "charging_station", "capacity": 3, "name": "Ealing/St Mary s Road", "opening_hours": "24/7", "operator": "Source London", "socket:type2": 3, "socket:type1": 3}}, {"type": "Feature", "geometry": {"type": "Point", "coordinates": [-0.287718, 51.510517]}, "properties": {"access": "customers", "amenity": "charging_station", "capacity": 2, "name": "Ealing/Fordhook Avenue", "opening_hours": "24/7", "operator": "Source London", "socket:type2": 2, "socket:type1": 2}}, {"type": "Feature", "geometry": {"type": "Point", "coordinates": [-0.264326, 51.499203]}, "properties": {"access": "customers", "amenity": "charging_station", "capacity": 3, "name": "Ealing/Saville Road", "opening_hours": "24/7", "operator": "Source London", "socket:type2": 2, "socket:type1": 2}}, {"type": "Feature", "geometry": {"type": "Point", "coordinates": [-0.29781, 51.518119]}, "properties": {"access": "customers", "amenity": "charging_station", "capacity": 2, "name": "Ealing/Woodville Gardens", "opening_hours": "24/7", "operator": "Source London", "socket:type2": 2, "socket:type1": 2}}, {"type": "Feature", "geometry": {"type": "Point", "coordinates": [-0.289518, 51.509779]}, "properties": {"access": "customers", "amenity": "charging_station", "capacity": 3, "name": "Ealing/Tring Avenue", "opening_hours": "24/7", "operator": "Source London", "socket:type2": 3, "socket:type1": 3}}, {"type": "Feature", "geometry": {"type": "Point", "coordinates": [-0.270009, 51.498666]}, "properties": {"access": "customers", "amenity": "charging_station", "capacity": 3, "name": "Ealing/Kingswood Road", "opening_hours": "24/7", "operator": "Source London", "socket:type2": 3, "socket:type1": 3}}, {"type": "Feature", "geometry": {"type": "Point", "coordinates": [-0.280066, 51.51777]}, "properties": {"access": "customers", "amenity": "charging_station", "capacity": 3, "name": "Ealing/Saxon Drive", "opening_hours": "24/7", "operator": "Source London", "socket:type2": 3, "socket:type1": 3}}, {"type": "Feature", "geometry": {"type": "Point", "coordinates": [-0.265742, 51.518072]}, "properties": {"access": "customers", "amenity": "charging_station", "capacity": 2, "name": "Ealing/York Road W3", "opening_hours": "24/7", "operator": "Source London", "socket:type2": 2, "socket:type1": 2}}, {"type": "Feature", "geometry": {"type": "Point", "coordinates": [-0.318959, 51.512911]}, "properties": {"access": "customers", "amenity": "charging_station", "capacity": 3, "name": "Ealing/Hastings Road", "opening_hours": "24/7", "operator": "Source London", "socket:type2": 3, "socket:type1": 3}}, {"type": "Feature", "geometry": {"type": "Point", "coordinates": [-0.325004, 51.5037]}, "properties": {"access": "customers", "amenity": "charging_station", "capacity": 3, "name": "Ealing/Newlands Gardens", "opening_hours": "24/7", "operator": "Source London", "socket:type2": 3, "socket:type1": 3}}, {"type": "Feature", "geometry": {"type": "Point", "coordinates": [-0.324585, 51.537901]}, "properties": {"access": "customers", "amenity": "charging_station", "capacity": 2, "name": "Ealing/Selborne Gardens", "opening_hours": "24/7", "operator": "Source London", "socket:type2": 2, "socket:type1": 2}}, {"type": "Feature", "geometry": {"type": "Point", "coordinates": [-0.38812, 51.534142]}, "properties": {"access": "customers", "amenity": "charging_station", "capacity": 3, "name": "Ealing/Ruislip Road", "opening_hours": "24/7", "operator": "Source London", "socket:type2": 3, "socket:type1": 3}}, {"type": "Feature", "geometry": {"type": "Point", "coordinates": [-0.376542, 51.506978]}, "properties": {"access": "customers", "amenity": "charging_station", "capacity": 3, "name": "Ealing/Park Avenue", "opening_hours": "24/7", "operator": "Source London", "socket:type2": 3, "socket:type1": 3}}, {"type": "Feature", "geometry": {"type": "Point", "coordinates": [-0.372108, 51.516979]}, "properties": {"access": "customers", "amenity": "charging_station", "capacity": 3, "name": "Ealing/Thurston Road", "opening_hours": "24/7", "operator": "Source London", "socket:type2": 3, "socket:type1": 3}}, {"type": "Feature", "geometry": {"type": "Point", "coordinates": [-0.171992, 51.415167]}, "properties": {"access": "customers", "amenity": "charging_station", "capacity": 3, "name": "Merton/Victoria Road", "opening_hours": "24/7", "operator": "Source London", "socket:type2": 3, "socket:type1": 3}}, {"type": "Feature", "geometry": {"type": "Point", "coordinates": [0.001402, 51.405284]}, "properties": {"access": "customers", "amenity": "charging_station", "capacity": 2, "name": "Bromley/Valley Road", "opening_hours": "24/7", "operator": "Source London", "socket:type2": 2, "socket:type1": 2}}, {"type": "Feature", "geometry": {"type": "Point", "coordinates": [-0.370664, 51.510979]}, "properties": {"access": "customers", "amenity": "charging_station", "capacity": 3, "name": "Ealing/Park View Road", "opening_hours": "24/7", "operator": "Source London", "socket:type2": 3, "socket:type1": 3}}, {"type": "Feature", "geometry": {"type": "Point", "coordinates": [-0.179407, 51.560314]}, "properties": {"access": "customers", "amenity": "charging_station", "capacity": 1, "name": "Camden/Hampstead Grove", "opening_hours": "24/7", "operator": "Source London"}}, {"type": "Feature", "geometry": {"type": "Point", "coordinates": [-0.154817, 51.418127]}, "properties": {"access": "customers", "amenity": "charging_station", "capacity": 3, "name": "Merton/Edenvale Road", "opening_hours": "24/7", "operator": "Source London", "socket:type2": 2, "socket:type1": 2}}, {"type": "Feature", "geometry": {"type": "Point", "coordinates": [-0.306283, 51.499915]}, "properties": {"access": "customers", "amenity": "charging_station", "capacity": 1, "name": "Ealing/South Ealing Road", "opening_hours": "24/7", "operator": "Source London"}}, {"type": "Feature", "geometry": {"type": "Point", "coordinates": [-0.322008, 51.509952]}, "properties": {"access": "customers", "amenity": "charging_station", "capacity": 3, "name": "Ealing/Deans Gardens CPark", "opening_hours": "24/7", "operator": "Source London", "socket:type2": 2, "socket:type1": 2}}, {"type": "Feature", "geometry": {"type": "Point", "coordinates": [-0.195039, 51.475172]}, "properties": {"access": "customers", "amenity": "charging_station", "capacity": 1, "name": "Hammersmith and Fulham/Crondace Road", "opening_hours": "24/7", "operator": "Source London"}}, {"type": "Feature", "geometry": {"type": "Point", "coordinates": [-0.296248, 51.534111]}, "properties": {"access": "customers", "amenity": "charging_station", "capacity": 3, "name": "Ealing/Quill Street", "opening_hours": "24/7", "operator": "Source London", "socket:type2": 1, "socket:type1": 1}}, {"type": "Feature", "geometry": {"type": "Point", "coordinates": [-0.25609, 51.496059]}, "properties": {"access": "customers", "amenity": "charging_station", "capacity": 3, "name": "Ealing/South Parade", "opening_hours": "24/7", "operator": "Source London", "socket:type2": 2, "socket:type1": 2}}, {"type": "Feature", "geometry": {"type": "Point", "coordinates": [0.035959, 51.392102]}, "properties": {"access": "customers", "amenity": "charging_station", "capacity": 3, "name": "Bromley/Chatterton Road", "opening_hours": "24/7", "operator": "Source London", "socket:type2": 2, "socket:type1": 2}}, {"type": "Feature", "geometry": {"type": "Point", "coordinates": [-0.346955, 51.541734]}, "properties": {"access": "customers", "amenity": "charging_station", "capacity": 3, "name": "Ealing/Hill Rise", "opening_hours": "24/7", "operator": "Source London", "socket:type2": 2, "socket:type1": 2}}, {"type": "Feature", "geometry": {"type": "Point", "coordinates": [-0.152131, 51.453713]}, "properties": {"access": "customers", "amenity": "charging_station", "capacity": 3, "name": "Wandsworth/Sumburgh Road", "opening_hours": "24/7", "operator": "Source London", "socket:type2": 3, "socket:type1": 3}}, {"type": "Feature", "geometry": {"type": "Point", "coordinates": [-0.158144, 51.461658]}, "properties": {"access": "customers", "amenity": "charging_station", "capacity": 3, "name": "Wandsworth/Sisters Avenue", "opening_hours": "24/7", "operator": "Source London", "socket:type2": 3, "socket:type1": 3}}, {"type": "Feature", "geometry": {"type": "Point", "coordinates": [-0.176336, 51.460665]}, "properties": {"access": "customers", "amenity": "charging_station", "capacity": 3, "name": "Wandsworth/Louvaine Road", "opening_hours": "24/7", "operator": "Source London", "socket:type2": 3, "socket:type1": 3}}, {"type": "Feature", "geometry": {"type": "Point", "coordinates": [-0.199783, 51.459643]}, "properties": {"access": "customers", "amenity": "charging_station", "capacity": 3, "name": "Wandsworth/Oakhill Road", "opening_hours": "24/7", "operator": "Source London", "socket:type2": 3, "socket:type1": 3}}, {"type": "Feature", "geometry": {"type": "Point", "coordinates": [-0.161057, 51.454375]}, "properties": {"access": "customers", "amenity": "charging_station", "capacity": 3, "name": "Wandsworth/Webbs Road", "opening_hours": "24/7", "operator": "Source London", "socket:type2": 2, "socket:type1": 2}}, {"type": "Feature", "geometry": {"type": "Point", "coordinates": [-0.169127, 51.463116]}, "properties": {"access": "customers", "amenity": "charging_station", "capacity": 3, "name": "Wandsworth/Severus Road", "opening_hours": "24/7", "operator": "Source London", "socket:type2": 1, "socket:type1": 1}}, {"type": "Feature", "geometry": {"type": "Point", "coordinates": [-0.155485, 51.461553]}, "properties": {"access": "customers", "amenity": "charging_station", "capacity": 3, "name": "Wandsworth/Stormont Road", "opening_hours": "24/7", "operator": "Source London", "socket:type2": 3, "socket:type1": 3}}, {"type": "Feature", "geometry": {"type": "Point", "coordinates": [-0.14715, 51.437735]}, "properties": {"access": "customers", "amenity": "charging_station", "capacity": 2, "name": "Wandsworth/Veronica Road", "opening_hours": "24/7", "operator": "Source London", "socket:type2": 2, "socket:type1": 2}}, {"type": "Feature", "geometry": {"type": "Point", "coordinates": [-0.158092, 51.434679]}, "properties": {"access": "customers", "amenity": "charging_station", "capacity": 3, "name": "Wandsworth/Wheatlands Road", "opening_hours": "24/7", "operator": "Source London", "socket:type2": 3, "socket:type1": 3}}, {"type": "Feature", "geometry": {"type": "Point", "coordinates": [-0.175701, 51.470457]}, "properties": {"access": "customers", "amenity": "charging_station", "capacity": 3, "name": "Wandsworth/Yelverton Road", "opening_hours": "24/7", "operator": "Source London", "socket:type2": 3, "socket:type1": 3}}, {"type": "Feature", "geometry": {"type": "Point", "coordinates": [-0.162194, 51.467261]}, "properties": {"access": "customers", "amenity": "charging_station", "capacity": 2, "name": "Wandsworth/Sabine Road", "opening_hours": "24/7", "operator": "Source London", "socket:type2": 2, "socket:type1": 2}}, {"type": "Feature", "geometry": {"type": "Point", "coordinates": [-0.158118, 51.458717]}, "properties": {"access": "customers", "amenity": "charging_station", "capacity": 2, "name": "Wandsworth/Canford Road", "opening_hours": "24/7", "operator": "Source London", "socket:type2": 1, "socket:type1": 1}}, {"type": "Feature", "geometry": {"type": "Point", "coordinates": [-0.160402, 51.454913]}, "properties": {"access": "customers", "amenity": "charging_station", "capacity": 2, "name": "Wandsworth/Wroughton Road", "opening_hours": "24/7", "operator": "Source London", "socket:type2": 2, "socket:type1": 2}}, {"type": "Feature", "geometry": {"type": "Point", "coordinates": [-0.170134, 51.461324]}, "properties": {"access": "customers", "amenity": "charging_station", "capacity": 3, "name": "Wandsworth/Comyn Road", "opening_hours": "24/7", "operator": "Source London", "socket:type2": 2, "socket:type1": 2}}, {"type": "Feature", "geometry": {"type": "Point", "coordinates": [-0.150072, 51.446945]}, "properties": {"access": "customers", "amenity": "charging_station", "capacity": 3, "name": "Wandsworth/Caistor Road", "opening_hours": "24/7", "operator": "Source London", "socket:type2": 3, "socket:type1": 3}}, {"type": "Feature", "geometry": {"type": "Point", "coordinates": [-0.181809, 51.465678]}, "properties": {"access": "customers", "amenity": "charging_station", "capacity": 2, "name": "Wandsworth/Chatfield Road", "opening_hours": "24/7", "operator": "Source London", "socket:type2": 2, "socket:type1": 2}}, {"type": "Feature", "geometry": {"type": "Point", "coordinates": [-0.166652, 51.4419]}, "properties": {"access": "customers", "amenity": "charging_station", "capacity": 3, "name": "Wandsworth/Brodrick Road", "opening_hours": "24/7", "operator": "Source London", "socket:type2": 3, "socket:type1": 3}}, {"type": "Feature", "geometry": {"type": "Point", "coordinates": [-0.16017, 51.47249]}, "properties": {"access": "customers", "amenity": "charging_station", "capacity": 3, "name": "Wandsworth/Culvert Road", "opening_hours": "24/7", "operator": "Source London", "socket:type2": 3, "socket:type1": 3}}, {"type": "Feature", "geometry": {"type": "Point", "coordinates": [-0.170755, 51.449751]}, "properties": {"access": "customers", "amenity": "charging_station", "capacity": 2, "name": "Wandsworth/Baskerville Road", "opening_hours": "24/7", "operator": "Source London", "socket:type2": 2, "socket:type1": 2}}, {"type": "Feature", "geometry": {"type": "Point", "coordinates": [-0.145028, 51.43683]}, "properties": {"access": "customers", "amenity": "charging_station", "capacity": 3, "name": "Wandsworth/Culverden Road", "opening_hours": "24/7", "operator": "Source London", "socket:type2": 3, "socket:type1": 3}}, {"type": "Feature", "geometry": {"type": "Point", "coordinates": [-0.146456, 51.564231]}, "properties": {"access": "customers", "amenity": "charging_station", "capacity": 1, "name": "Camden/Swains Lane", "opening_hours": "24/7", "operator": "Source London"}}, {"type": "Feature", "geometry": {"type": "Point", "coordinates": [-0.20479, 51.532676]}, "properties": {"access": "customers", "amenity": "charging_station", "capacity": 3, "name": "Westminster/Portnall Road", "opening_hours": "24/7", "operator": "Source London", "socket:type2": 2, "socket:type1": 2}}, {"type": "Feature", "geometry": {"type": "Point", "coordinates": [-0.137617, 51.511818]}, "properties": {"access": "customers", "amenity": "charging_station", "capacity": 1, "name": "Westminster/Golden Square", "opening_hours": "24/7", "operator": "Source London"}}, {"type": "Feature", "geometry": {"type": "Point", "coordinates": [-0.145034, 51.52046]}, "properties": {"access": "customers", "amenity": "charging_station", "capacity": 3, "name": "Westminster/Portland Place", "opening_hours": "24/7", "operator": "Source London", "socket:type2": 1, "socket:type1": 1}}, {"type": "Feature", "geometry": {"type": "Point", "coordinates": [-0.197807, 51.518558]}, "properties": {"access": "customers", "amenity": "charging_station", "capacity": 3, "name": "Westminster/Shrewsbury Road", "opening_hours": "24/7", "operator": "Source London", "socket:type2": 2, "socket:type1": 2}}, {"type": "Feature", "geometry": {"type": "Point", "coordinates": [-0.189159, 51.52945]}, "properties": {"access": "customers", "amenity": "charging_station", "capacity": 3, "name": "Westminster/Biddulph Rd", "opening_hours": "24/7", "operator": "Source London", "socket:type2": 2, "socket:type1": 2}}, {"type": "Feature", "geometry": {"type": "Point", "coordinates": [-0.178415, 51.511847]}, "properties": {"access": "customers", "amenity": "charging_station", "capacity": 1, "name": "Westminster/Lancaster Gate", "opening_hours": "24/7", "operator": "Source London"}}, {"type": "Feature", "geometry": {"type": "Point", "coordinates": [-0.213284, 51.531537]}, "properties": {"access": "customers", "amenity": "charging_station", "capacity": 3, "name": "Westminster/Sixth Avenue", "opening_hours": "24/7", "operator": "Source London", "socket:type2": 2, "socket:type1": 2}}, {"type": "Feature", "geometry": {"type": "Point", "coordinates": [-0.172289, 51.514027]}, "properties": {"access": "customers", "amenity": "charging_station", "capacity": 1, "name": "Westminster/Sussex Place", "opening_hours": "24/7", "operator": "Source London"}}, {"type": "Feature", "geometry": {"type": "Point", "coordinates": [-0.134094, 51.488705]}, "properties": {"access": "customers", "amenity": "charging_station", "capacity": 3, "name": "Westminster/Aylesford Street", "opening_hours": "24/7", "operator": "Source London", "socket:type2": 2, "socket:type1": 2}}, {"type": "Feature", "geometry": {"type": "Point", "coordinates": [-0.216375, 51.433953]}, "properties": {"access": "customers", "amenity": "charging_station", "capacity": 2, "name": "Merton/Somerset Road", "opening_hours": "24/7", "operator": "Source London", "socket:type2": 2, "socket:type1": 2}}, {"type": "Feature", "geometry": {"type": "Point", "coordinates": [-0.093133, 51.559663]}, "properties": {"access": "customers", "amenity": "charging_station", "capacity": 2, "name": "Islington/Highbury Quadrant", "opening_hours": "24/7", "operator": "Source London", "socket:type2": 2, "socket:type1": 2}}, {"type": "Feature", "geometry": {"type": "Point", "coordinates": [-0.122446, 51.54885]}, "properties": {"access": "customers", "amenity": "charging_station", "capacity": 2, "name": "Islington/35 North Road N7", "opening_hours": "24/7", "operator": "Source London", "socket:type2": 1, "socket:type1": 1}}, {"type": "Feature", "geometry": {"type": "Point", "coordinates": [-0.091244, 51.557213]}, "properties": {"access": "customers", "amenity": "charging_station", "capacity": 2, "name": "Islington/Collins Road", "opening_hours": "24/7", "operator": "Source London", "socket:type2": 2, "socket:type1": 2}}, {"type": "Feature", "geometry": {"type": "Point", "coordinates": [-0.118675, 51.539231]}, "properties": {"access": "customers", "amenity": "charging_station", "capacity": 2, "name": "Islington/Bingfield Street", "opening_hours": "24/7", "operator": "Source London", "socket:type2": 1, "socket:type1": 1}}, {"type": "Feature", "geometry": {"type": "Point", "coordinates": [-0.098128, 51.535374]}, "properties": {"access": "customers", "amenity": "charging_station", "capacity": 2, "name": "Islington/Chantry Street (B)", "opening_hours": "24/7", "operator": "Source London", "socket:type2": 1, "socket:type1": 1}}, {"type": "Feature", "geometry": {"type": "Point", "coordinates": [-0.13177, 51.555033]}, "properties": {"access": "customers", "amenity": "charging_station", "capacity": 2, "name": "Islington/Huddleston Road", "opening_hours": "24/7", "operator": "Source London", "socket:type2": 2, "socket:type1": 2}}, {"type": "Feature", "geometry": {"type": "Point", "coordinates": [-0.117378, 51.573786]}, "properties": {"access": "customers", "amenity": "charging_station", "capacity": 2, "name": "Islington/Blythwood Road", "opening_hours": "24/7", "operator": "Source London", "socket:type2": 2, "socket:type1": 2}}, {"type": "Feature", "geometry": {"type": "Point", "coordinates": [-0.086424, 51.470248]}, "properties": {"access": "customers", "amenity": "charging_station", "capacity": 2, "name": "Southwark/Camberwell Grove", "opening_hours": "24/7", "operator": "Source London", "socket:type2": 2, "socket:type1": 2}}, {"type": "Feature", "geometry": {"type": "Point", "coordinates": [-0.079349, 51.453586]}, "properties": {"access": "customers", "amenity": "charging_station", "capacity": 5, "name": "Southwark/Townley Road (2)", "opening_hours": "24/7", "operator": "Source London", "socket:type2": 5, "socket:type1": 5}}, {"type": "Feature", "geometry": {"type": "Point", "coordinates": [-0.050343, 51.497216]}, "properties": {"access": "customers", "amenity": "charging_station", "capacity": 4, "name": "Southwark/Surrey Quays Road", "opening_hours": "24/7", "operator": "Source London", "socket:type2": 4, "socket:type1": 4}}, {"type": "Feature", "geometry": {"type": "Point", "coordinates": [-0.072859, 51.432347]}, "properties": {"access": "customers", "amenity": "charging_station", "capacity": 2, "name": "Southwark/Crescent wood Road (2)", "opening_hours": "24/7", "operator": "Source London", "socket:type2": 2, "socket:type1": 2}}, {"type": "Feature", "geometry": {"type": "Point", "coordinates": [-0.066383, 51.492356]}, "properties": {"access": "customers", "amenity": "charging_station", "capacity": 3, "name": "Southwark/184 Southwark Park Road", "opening_hours": "24/7", "operator": "Source London", "socket:type2": 2, "socket:type1": 2}}, {"type": "Feature", "geometry": {"type": "Point", "coordinates": [-0.10658, 51.500557]}, "properties": {"access": "customers", "amenity": "charging_station", "capacity": 3, "name": "Southwark/Webber Row", "opening_hours": "24/7", "operator": "Source London", "socket:type2": 3, "socket:type1": 3}}, {"type": "Feature", "geometry": {"type": "Point", "coordinates": [-0.085789, 51.448269]}, "properties": {"access": "customers", "amenity": "charging_station", "capacity": 3, "name": "Southwark/Pickwick Road (2)", "opening_hours": "24/7", "operator": "Source London", "socket:type2": 2, "socket:type1": 2}}, {"type": "Feature", "geometry": {"type": "Point", "coordinates": [-0.09145, 51.456095]}, "properties": {"access": "customers", "amenity": "charging_station", "capacity": 5, "name": "Southwark/Elmwood Road", "opening_hours": "24/7", "operator": "Source London", "socket:type2": 5, "socket:type1": 5}}, {"type": "Feature", "geometry": {"type": "Point", "coordinates": [-0.069906, 51.497245]}, "properties": {"access": "customers", "amenity": "charging_station", "capacity": 4, "name": "Southwark/Old Jamaica Road", "opening_hours": "24/7", "operator": "Source London", "socket:type2": 4, "socket:type1": 4}}, {"type": "Feature", "geometry": {"type": "Point", "coordinates": [-0.069953, 51.47773]}, "properties": {"access": "customers", "amenity": "charging_station", "capacity": 3, "name": "Southwark/28 Commercial Way SE15", "opening_hours": "24/7", "operator": "Source London", "socket:type2": 3, "socket:type1": 3}}, {"type": "Feature", "geometry": {"type": "Point", "coordinates": [-0.177633, 51.493868]}, "properties": {"access": "customers", "amenity": "charging_station", "capacity": 2, "name": "Kensington and Chelsea/Harrington Road", "opening_hours": "24/7", "operator": "Source London", "socket:type2": 1, "socket:type1": 1}}, {"type": "Feature", "geometry": {"type": "Point", "coordinates": [-0.065068, 51.427785]}, "properties": {"access": "customers", "amenity": "charging_station", "capacity": 2, "name": "Lewisham/Longton Grove", "opening_hours": "24/7", "operator": "Source London", "socket:type2": 2, "socket:type1": 2}}, {"type": "Feature", "geometry": {"type": "Point", "coordinates": [-0.04661, 51.434889]}, "properties": {"access": "customers", "amenity": "charging_station", "capacity": 2, "name": "Lewisham/Mayow Road", "opening_hours": "24/7", "operator": "Source London", "socket:type2": 2, "socket:type1": 2}}, {"type": "Feature", "geometry": {"type": "Point", "coordinates": [-0.057602, 51.442014]}, "properties": {"access": "customers", "amenity": "charging_station", "capacity": 2, "name": "Lewisham/Honour Oak Road", "opening_hours": "24/7", "operator": "Source London", "socket:type2": 2, "socket:type1": 2}}, {"type": "Feature", "geometry": {"type": "Point", "coordinates": [0.000518, 51.454526]}, "properties": {"access": "customers", "amenity": "charging_station", "capacity": 3, "name": "Lewisham/Kellerton Road", "opening_hours": "24/7", "operator": "Source London", "socket:type2": 3, "socket:type1": 3}}, {"type": "Feature", "geometry": {"type": "Point", "coordinates": [-0.001929, 51.452211]}, "properties": {"access": "customers", "amenity": "charging_station", "capacity": 2, "name": "Lewisham/Maythorne Cottages", "opening_hours": "24/7", "operator": "Source London", "socket:type2": 2, "socket:type1": 2}}, {"type": "Feature", "geometry": {"type": "Point", "coordinates": [-0.161411, 51.517895]}, "properties": {"access": "customers", "amenity": "charging_station", "capacity": 1, "name": "Westminster/Bryanston Square", "opening_hours": "24/7", "operator": "Source London"}}, {"type": "Feature", "geometry": {"type": "Point", "coordinates": [-0.301232, 51.516028]}, "properties": {"access": "customers", "amenity": "charging_station", "capacity": 1, "name": "Ealing/Madeley Road", "opening_hours": "24/7", "operator": "Source London"}}, {"type": "Feature", "geometry": {"type": "Point", "coordinates": [-0.040206, 51.488037]}, "properties": {"access": "customers", "amenity": "charging_station", "capacity": 2, "name": "Lewisham/Hicks Street", "opening_hours": "24/7", "operator": "Source London", "socket:type2": 2, "socket:type1": 2}}, {"type": "Feature", "geometry": {"type": "Point", "coordinates": [-0.079842, 51.419539]}, "properties": {"access": "customers", "amenity": "charging_station", "capacity": 3, "name": "Croydon/Saint Aubyns Road", "opening_hours": "24/7", "operator": "Source London", "socket:type2": 3, "socket:type1": 3}}, {"type": "Feature", "geometry": {"type": "Point", "coordinates": [-0.004904, 51.435796]}, "properties": {"access": "customers", "amenity": "charging_station", "capacity": 2, "name": "Lewisham/Longhill Road", "opening_hours": "24/7", "operator": "Source London", "socket:type2": 2, "socket:type1": 2}}, {"type": "Feature", "geometry": {"type": "Point", "coordinates": [-0.000996, 51.439965]}, "properties": {"access": "customers", "amenity": "charging_station", "capacity": 2, "name": "Lewisham/Dowanhill Road", "opening_hours": "24/7", "operator": "Source London", "socket:type2": 2, "socket:type1": 2}}, {"type": "Feature", "geometry": {"type": "Point", "coordinates": [-0.193846, 51.418591]}, "properties": {"access": "customers", "amenity": "charging_station", "capacity": 3, "name": "Merton/Griffiths Road", "opening_hours": "24/7", "operator": "Source London", "socket:type2": 3, "socket:type1": 3}}, {"type": "Feature", "geometry": {"type": "Point", "coordinates": [-0.208548, 51.420714]}, "properties": {"access": "customers", "amenity": "charging_station", "capacity": 1, "name": "Merton/Saint Georges Road", "opening_hours": "24/7", "operator": "Source London"}}, {"type": "Feature", "geometry": {"type": "Point", "coordinates": [-0.193436, 51.407829]}, "properties": {"access": "customers", "amenity": "charging_station", "capacity": 2, "name": "Merton/Daybrook Road", "opening_hours": "24/7", "operator": "Source London", "socket:type2": 2, "socket:type1": 2}}, {"type": "Feature", "geometry": {"type": "Point", "coordinates": [-0.176276, 51.422086]}, "properties": {"access": "customers", "amenity": "charging_station", "capacity": 2, "name": "Merton/Briscoe Road", "opening_hours": "24/7", "operator": "Source London", "socket:type2": 2, "socket:type1": 2}}, {"type": "Feature", "geometry": {"type": "Point", "coordinates": [-0.190554, 51.401212]}, "properties": {"access": "customers", "amenity": "charging_station", "capacity": 2, "name": "Merton/Bardney Road", "opening_hours": "24/7", "operator": "Source London", "socket:type2": 2, "socket:type1": 2}}, {"type": "Feature", "geometry": {"type": "Point", "coordinates": [-0.184093, 51.415733]}, "properties": {"access": "customers", "amenity": "charging_station", "capacity": 2, "name": "Merton/Mill Road", "opening_hours": "24/7", "operator": "Source London", "socket:type2": 2, "socket:type1": 2}}, {"type": "Feature", "geometry": {"type": "Point", "coordinates": [-0.173841, 51.421455]}, "properties": {"access": "customers", "amenity": "charging_station", "capacity": 3, "name": "Merton/Park Road Colliers Wood", "opening_hours": "24/7", "operator": "Source London", "socket:type2": 3, "socket:type1": 3}}, {"type": "Feature", "geometry": {"type": "Point", "coordinates": [-0.223301, 51.432674]}, "properties": {"access": "customers", "amenity": "charging_station", "capacity": 2, "name": "Merton/Calonne Road", "opening_hours": "24/7", "operator": "Source London", "socket:type2": 2, "socket:type1": 2}}, {"type": "Feature", "geometry": {"type": "Point", "coordinates": [-0.197257, 51.434983]}, "properties": {"access": "customers", "amenity": "charging_station", "capacity": 3, "name": "Merton/Arthur Road 168 (site 2)", "opening_hours": "24/7", "operator": "Source London", "socket:type2": 3, "socket:type1": 3}}, {"type": "Feature", "geometry": {"type": "Point", "coordinates": [-0.193232, 51.422133]}, "properties": {"access": "customers", "amenity": "charging_station", "capacity": 3, "name": "Merton/Ashley Road SW19", "opening_hours": "24/7", "operator": "Source London", "socket:type2": 3, "socket:type1": 3}}, {"type": "Feature", "geometry": {"type": "Point", "coordinates": [-0.221028, 51.414888]}, "properties": {"access": "customers", "amenity": "charging_station", "capacity": 2, "name": "Merton/The Downs", "opening_hours": "24/7", "operator": "Source London", "socket:type2": 2, "socket:type1": 2}}, {"type": "Feature", "geometry": {"type": "Point", "coordinates": [-0.211117, 51.413109]}, "properties": {"access": "customers", "amenity": "charging_station", "capacity": 3, "name": "Merton/Merton Hall Road", "opening_hours": "24/7", "operator": "Source London", "socket:type2": 3, "socket:type1": 3}}, {"type": "Feature", "geometry": {"type": "Point", "coordinates": [-0.200815, 51.434516]}, "properties": {"access": "customers", "amenity": "charging_station", "capacity": 2, "name": "Merton/Arthur Road 135 (site 1)", "opening_hours": "24/7", "operator": "Source London", "socket:type2": 2, "socket:type1": 2}}, {"type": "Feature", "geometry": {"type": "Point", "coordinates": [-0.210482, 51.4139]}, "properties": {"access": "customers", "amenity": "charging_station", "capacity": 3, "name": "Merton/Avebury Road", "opening_hours": "24/7", "operator": "Source London", "socket:type2": 3, "socket:type1": 3}}, {"type": "Feature", "geometry": {"type": "Point", "coordinates": [-0.347243, 51.458505]}, "properties": {"access": "customers", "amenity": "charging_station", "capacity": 3, "name": "Hounslow/Whitton Dene", "opening_hours": "24/7", "operator": "Source London", "socket:type2": 3, "socket:type1": 3}}, {"type": "Feature", "geometry": {"type": "Point", "coordinates": [-0.383249, 51.478287]}, "properties": {"access": "customers", "amenity": "charging_station", "capacity": 3, "name": "Hounslow/Vicarage Farm Road Site 2", "opening_hours": "24/7", "operator": "Source London", "socket:type2": 3, "socket:type1": 3}}, {"type": "Feature", "geometry": {"type": "Point", "coordinates": [-0.354708, 51.480659]}, "properties": {"access": "customers", "amenity": "charging_station", "capacity": 3, "name": "Hounslow/Penwerris Avenue", "opening_hours": "24/7", "operator": "Source London", "socket:type2": 3, "socket:type1": 3}}, {"type": "Feature", "geometry": {"type": "Point", "coordinates": [-0.259329, 51.47948]}, "properties": {"access": "customers", "amenity": "charging_station", "capacity": 2, "name": "Hounslow/Staveley gardens", "opening_hours": "24/7", "operator": "Source London", "socket:type2": 2, "socket:type1": 2}}, {"type": "Feature", "geometry": {"type": "Point", "coordinates": [-0.396241, 51.484796]}, "properties": {"access": "customers", "amenity": "charging_station", "capacity": 3, "name": "Hounslow/Brabazon Road", "opening_hours": "24/7", "operator": "Source London", "socket:type2": 3, "socket:type1": 3}}, {"type": "Feature", "geometry": {"type": "Point", "coordinates": [-0.279285, 51.492994]}, "properties": {"access": "customers", "amenity": "charging_station", "capacity": 4, "name": "Hounslow/Power Road", "opening_hours": "24/7", "operator": "Source London", "socket:type2": 4, "socket:type1": 4}}, {"type": "Feature", "geometry": {"type": "Point", "coordinates": [-0.363541, 51.471287]}, "properties": {"access": "customers", "amenity": "charging_station", "capacity": 2, "name": "Hounslow/23 Alexandra Road Hounslow", "opening_hours": "24/7", "operator": "Source London", "socket:type2": 1, "socket:type1": 1}}, {"type": "Feature", "geometry": {"type": "Point", "coordinates": [-0.313638, 51.483313]}, "properties": {"access": "customers", "amenity": "charging_station", "capacity": 3, "name": "Hounslow/Commerce Road", "opening_hours": "24/7", "operator": "Source London", "socket:type2": 2, "socket:type1": 2}}, {"type": "Feature", "geometry": {"type": "Point", "coordinates": [-0.363592, 51.477502]}, "properties": {"access": "customers", "amenity": "charging_station", "capacity": 2, "name": "Hounslow/Lampton Road", "opening_hours": "24/7", "operator": "Source London", "socket:type2": 2, "socket:type1": 2}}, {"type": "Feature", "geometry": {"type": "Point", "coordinates": [-0.363544, 51.476026]}, "properties": {"access": "customers", "amenity": "charging_station", "capacity": 2, "name": "Hounslow/Brookwood Road", "opening_hours": "24/7", "operator": "Source London", "socket:type2": 2, "socket:type1": 2}}, {"type": "Feature", "geometry": {"type": "Point", "coordinates": [-0.389754, 51.473916]}, "properties": {"access": "customers", "amenity": "charging_station", "capacity": 4, "name": "Hounslow/Bath Road Opposite 383", "opening_hours": "24/7", "operator": "Source London", "socket:type2": 3, "socket:type1": 3}}, {"type": "Feature", "geometry": {"type": "Point", "coordinates": [-0.284099, 51.476797]}, "properties": {"access": "customers", "amenity": "charging_station", "capacity": 3, "name": "Richmond Upon Thames/Burlington Avenue", "opening_hours": "24/7", "operator": "Source London", "socket:type2": 3, "socket:type1": 3}}, {"type": "Feature", "geometry": {"type": "Point", "coordinates": [-0.291974, 51.474142]}, "properties": {"access": "customers", "amenity": "charging_station", "capacity": 3, "name": "Richmond Upon Thames/The Avenue (Richmond)", "opening_hours": "24/7", "operator": "Source London", "socket:type2": 3, "socket:type1": 3}}, {"type": "Feature", "geometry": {"type": "Point", "coordinates": [-0.248654, 51.46568]}, "properties": {"access": "customers", "amenity": "charging_station", "capacity": 2, "name": "Richmond Upon Thames/Westwood Road", "opening_hours": "24/7", "operator": "Source London", "socket:type2": 2, "socket:type1": 2}}, {"type": "Feature", "geometry": {"type": "Point", "coordinates": [0.047746, 51.483494]}, "properties": {"access": "customers", "amenity": "charging_station", "capacity": 3, "name": "Greenwich/Park Drive", "opening_hours": "24/7", "operator": "Source London", "socket:type2": 3, "socket:type1": 3}}, {"type": "Feature", "geometry": {"type": "Point", "coordinates": [0.070888, 51.436999]}, "properties": {"access": "customers", "amenity": "charging_station", "capacity": 2, "name": "Greenwich/Southwood Road", "opening_hours": "24/7", "operator": "Source London", "socket:type2": 2, "socket:type1": 2}}, {"type": "Feature", "geometry": {"type": "Point", "coordinates": [0.06673, 51.484483]}, "properties": {"access": "customers", "amenity": "charging_station", "capacity": 3, "name": "Greenwich/Brookhill Road", "opening_hours": "24/7", "operator": "Source London", "socket:type2": 3, "socket:type1": 3}}, {"type": "Feature", "geometry": {"type": "Point", "coordinates": [0.093198, 51.474913]}, "properties": {"access": "customers", "amenity": "charging_station", "capacity": 3, "name": "Greenwich/Swingate Lane", "opening_hours": "24/7", "operator": "Source London", "socket:type2": 3, "socket:type1": 3}}, {"type": "Feature", "geometry": {"type": "Point", "coordinates": [0.090772, 51.486422]}, "properties": {"access": "customers", "amenity": "charging_station", "capacity": 3, "name": "Greenwich/Lakedale Road", "opening_hours": "24/7", "operator": "Source London", "socket:type2": 2, "socket:type1": 2}}, {"type": "Feature", "geometry": {"type": "Point", "coordinates": [0.06946, 51.473185]}, "properties": {"access": "customers", "amenity": "charging_station", "capacity": 3, "name": "Greenwich/Shrewbury Lane SE18", "opening_hours": "24/7", "operator": "Source London", "socket:type2": 3, "socket:type1": 3}}, {"type": "Feature", "geometry": {"type": "Point", "coordinates": [0.054488, 51.466866]}, "properties": {"access": "customers", "amenity": "charging_station", "capacity": 2, "name": "Greenwich/Westmount Road", "opening_hours": "24/7", "operator": "Source London", "socket:type2": 2, "socket:type1": 2}}, {"type": "Feature", "geometry": {"type": "Point", "coordinates": [0.069405, 51.479625]}, "properties": {"access": "customers", "amenity": "charging_station", "capacity": 2, "name": "Greenwich/Barnfield Road", "opening_hours": "24/7", "operator": "Source London", "socket:type2": 2, "socket:type1": 2}}, {"type": "Feature", "geometry": {"type": "Point", "coordinates": [-0.133626, 51.534712]}, "properties": {"access": "customers", "amenity": "charging_station", "capacity": 1, "name": "Camden/Charrington Street", "opening_hours": "24/7", "operator": "Source London"}}, {"type": "Feature", "geometry": {"type": "Point", "coordinates": [-0.136707, 51.544006]}, "properties": {"access": "customers", "amenity": "charging_station", "capacity": 1, "name": "Camden/Rochester Road NW1", "opening_hours": "24/7", "operator": "Source London"}}, {"type": "Feature", "geometry": {"type": "Point", "coordinates": [-0.116387, 51.519887]}, "properties": {"access": "customers", "amenity": "charging_station", "capacity": 1, "name": "Camden/Princeton Street", "opening_hours": "24/7", "operator": "Source London"}}, {"type": "Feature", "geometry": {"type": "Point", "coordinates": [-0.13046, 51.550039]}, "properties": {"access": "customers", "amenity": "charging_station", "capacity": 1, "name": "Camden/Brecknock Road", "opening_hours": "24/7", "operator": "Source London"}}, {"type": "Feature", "geometry": {"type": "Point", "coordinates": [-0.128687, 51.546495]}, "properties": {"access": "customers", "amenity": "charging_station", "capacity": 1, "name": "Camden/South Villas", "opening_hours": "24/7", "operator": "Source London"}}, {"type": "Feature", "geometry": {"type": "Point", "coordinates": [-0.134085, 51.546041]}, "properties": {"access": "customers", "amenity": "charging_station", "capacity": 1, "name": "Camden/Sandall Road", "opening_hours": "24/7", "operator": "Source London"}}, {"type": "Feature", "geometry": {"type": "Point", "coordinates": [0.033205, 51.465186]}, "properties": {"access": "customers", "amenity": "charging_station", "capacity": 3, "name": "Greenwich/Broad Walk", "opening_hours": "24/7", "operator": "Source London", "socket:type2": 3, "socket:type1": 3}}, {"type": "Feature", "geometry": {"type": "Point", "coordinates": [0.005376, 51.479982]}, "properties": {"access": "customers", "amenity": "charging_station", "capacity": 2, "name": "Greenwich/Westcombe Park Road", "opening_hours": "24/7", "operator": "Source London", "socket:type2": 2, "socket:type1": 2}}, {"type": "Feature", "geometry": {"type": "Point", "coordinates": [-0.145089, 51.547834]}, "properties": {"access": "customers", "amenity": "charging_station", "capacity": 1, "name": "Camden/Inkerman Road", "opening_hours": "24/7", "operator": "Source London"}}, {"type": "Feature", "geometry": {"type": "Point", "coordinates": [0.057736, 51.430558]}, "properties": {"access": "customers", "amenity": "charging_station", "capacity": 4, "name": "Greenwich/William Barefoot Drive", "opening_hours": "24/7", "operator": "Source London", "socket:type2": 4, "socket:type1": 4}}, {"type": "Feature", "geometry": {"type": "Point", "coordinates": [0.096871, 51.494712]}, "properties": {"access": "customers", "amenity": "charging_station", "capacity": 3, "name": "Greenwich/Nathan Way", "opening_hours": "24/7", "operator": "Source London", "socket:type2": 3, "socket:type1": 3}}, {"type": "Feature", "geometry": {"type": "Point", "coordinates": [0.044874, 51.472097]}, "properties": {"access": "customers", "amenity": "charging_station", "capacity": 2, "name": "Greenwich/Zangwill Road", "opening_hours": "24/7", "operator": "Source London", "socket:type2": 2, "socket:type1": 2}}, {"type": "Feature", "geometry": {"type": "Point", "coordinates": [0.05281, 51.493307]}, "properties": {"access": "customers", "amenity": "charging_station", "capacity": 3, "name": "Greenwich/Antelope Road", "opening_hours": "24/7", "operator": "Source London", "socket:type2": 3, "socket:type1": 3}}, {"type": "Feature", "geometry": {"type": "Point", "coordinates": [0.069518, 51.487518]}, "properties": {"access": "customers", "amenity": "charging_station", "capacity": 2, "name": "Greenwich/Mason Hill SE18", "opening_hours": "24/7", "operator": "Source London", "socket:type2": 2, "socket:type1": 2}}, {"type": "Feature", "geometry": {"type": "Point", "coordinates": [0.060772, 51.475316]}, "properties": {"access": "customers", "amenity": "charging_station", "capacity": 3, "name": "Greenwich/Red Lion Lane", "opening_hours": "24/7", "operator": "Source London", "socket:type2": 3, "socket:type1": 3}}, {"type": "Feature", "geometry": {"type": "Point", "coordinates": [0.021616, 51.453795]}, "properties": {"access": "customers", "amenity": "charging_station", "capacity": 2, "name": "Greenwich/Horn Park Lane", "opening_hours": "24/7", "operator": "Source London", "socket:type2": 2, "socket:type1": 2}}, {"type": "Feature", "geometry": {"type": "Point", "coordinates": [-0.213959, 51.52634]}, "properties": {"access": "customers", "amenity": "charging_station", "capacity": 2, "name": "Kensington and Chelsea/Kensal Road", "opening_hours": "24/7", "operator": "Source London", "socket:type2": 1, "socket:type1": 1}}]}